CBSA,MSA_Name,Primary_City,Primary_State,Primary_State_Code,Primary_State_FIPS,Primary_County,Primary_County_FIPS,lat,lng,County_agg,County_FIPS_agg,CBSA Code,zips
10180,"Abilene, TX",Abilene,Texas,TX,48,Taylor,48441,32.4543,-99.7384,"Callahan County, Jones County, Taylor County","48059, 48253, 48441",10180,79605 79699 79603 79601 79607 79606 79602 79604 79608 79697 79698
10420,"Akron, OH",Akron,Ohio,OH,39,Summit,39153,41.0798,-81.5219,"Portage County, Summit County","39133, 39153",10420,44306 44307 44304 44305 44302 44303 44301 44308 44320 44311 44310 44313 44312 44319 44314 44309 44315 44316 44317 44325 44326 44328 44334 44396 44398
10500,"Albany, GA",Albany,Georgia,GA,13,Dougherty,13095,31.5776,-84.1762,"Dougherty County, Lee County, Terrell County, Worth County","13095, 13177, 13273, 13321",10500,31721 31701 31707 31705 31702 31703 31706 31708
10540,"Albany-Lebanon, OR",Albany,Oregon,OR,41,Linn,41043,44.6274,-123.0966,Linn County,41043,10540,97321 97322 97355
10580,"Albany-Schenectady-Troy, NY",Albany,New York,NY,36,Albany,36001,42.6664,-73.7987,"Albany County, Rensselaer County, Saratoga County, Schenectady County, Schoharie County","36001, 36083, 36091, 36093, 36095",10580,12208 12209 12204 12206 12207 12202 12203 12205 12210 12222 12201 12223 12226 12228 12229 12230 12231 12232 12233 12234 12235 12236 12237 12238 12239 12240 12241 12242 12243 12244 12245 12246 12248 12250 12255 12257 12260 12261 12305 12304 12307 12308 12301 12325 12345 12182 12180 12181
10740,"Albuquerque, NM",Albuquerque,New Mexico,NM,35,Bernalillo,35001,35.1053,-106.6464,"Bernalillo County, Sandoval County, Torrance County, Valencia County","35001, 35043, 35057, 35061",10740,87121 87120 87123 87112 87113 87110 87111 87116 87114 87109 87108 87102 87105 87104 87107 87106 87103 87119 87125 87131 87153 87154 87158 87181 87184 87187 87190 87191 87192 87194 87196 87197 87198 87199
10780,"Alexandria, LA",Alexandria,Louisiana,LA,22,Rapides,22079,31.2923,-92.4702,"Grant Parish, Rapides Parish","22043, 22079",10780,71302 71303 71301 71307 71309 71315 71348
10900,"Allentown-Bethlehem-Easton, PA-NJ",Allentown,Pennsylvania,PA,42,Lehigh,42077,40.5961,-75.4756,"Warren County, Carbon County, Lehigh County, Northampton County","34041, 42025, 42077, 42095",10900,18105 18104 18101 18103 18102 18109 18001 18017 18016 18015 18018 18025
11020,"Altoona, PA",Altoona,Pennsylvania,PA,42,Blair,42013,40.5082,-78.4007,Blair County,42013,11020,16601 16602 16603
11100,"Amarillo, TX",Amarillo,Texas,TX,48,Potter,48375,35.1988,-101.8311,"Armstrong County, Carson County, Oldham County, Potter County, Randall County","48011, 48065, 48359, 48375, 48381",11100,79121 79109 79101 79102 79103 79104 79106 79107 79118 79111 79110 79114 79116 79117 79120 79166 79168 79172 79174 79178 79189
11180,"Ames, IA",Ames,Iowa,IA,19,Story,19169,42.0259,-93.6215,"Boone County, Story County","19015, 19169",11180,50014 50012 50011 50010 50013
11260,"Anchorage, AK",Anchorage,Alaska,AK,2,Anchorage,02020,61.1508,-149.1091,"Anchorage Municipality, Matanuska-Susitna Borough","02020, 02170",11260,99518 99515 99517 99516 99513 99540 99567 99587 99508 99506 99507 99504 99505 99502 99503 99501 99577 99509 99511 99514 99520 99521 99522 99523 99524 99529 99530 99599
11460,"Ann Arbor, MI",Ann Arbor,Michigan,MI,26,Washtenaw,26161,42.2755,-83.7312,Washtenaw County,26161,11460,48103 48104 48105 48108 48109 48113
11500,"Anniston-Oxford, AL",Anniston,Alabama,AL,1,Calhoun,01015,33.6712,-85.8136,Calhoun County,1015,11500,36201 36206 36207 36205 36204 36260 36203 36253
11540,"Appleton, WI",Appleton,Wisconsin,WI,55,Outagamie,55087,44.2779,-88.3891,"Calumet County, Outagamie County","55015, 55087",11540,54914 54915 54913 54911 54912 54919
11700,"Asheville, NC",Asheville,North Carolina,NC,37,Buncombe,37021,35.5704,-82.5536,"Buncombe County, Haywood County, Henderson County, Madison County","37021, 37087, 37089, 37115",11700,28806 28805 28804 28803 28801 28776 28810 28814 28815 28816
12020,"Athens-Clarke County, GA",Athens,Georgia,GA,13,Clarke,13059,33.9508,-83.3689,"Clarke County, Madison County, Oconee County, Oglethorpe County","13059, 13195, 13219, 13221",12020,30622 30601 30602 30605 30606 30607 30609 30683 30603 30608 30612
12060,"Atlanta-Sandy Springs-Alpharetta, GA",Atlanta,Georgia,GA,13,Fulton,13121,33.7627,-84.4224,"Barrow County, Bartow County, Butts County, Carroll County, Cherokee County, Clayton County, Cobb County, Coweta County, Dawson County, DeKalb County, Douglas County, Fayette County, Forsyth County, Fulton County, Gwinnett County, Haralson County, Heard County, Henry County, Jasper County, Lamar County, Meriwether County, Morgan County, Newton County, Paulding County, Pickens County, Pike County, Rockdale County, Spalding County, Walton County","13013, 13015, 13035, 13045, 13057, 13063, 13067, 13077, 13085, 13089, 13097, 13113, 13117, 13121, 13135, 13143, 13149, 13151, 13159, 13171, 13199, 13211, 13217, 13223, 13227, 13231, 13247, 13255, 13297",12060,30022 30004 30005 30009 30023 30334 30331 30332 30309 30308 30305 30307 30303 30354 30327 30322 30326 30324 30319 30342 30306 30318 30316 30317 30314 30315 30312 30313 30310 30311 30363 30301 30302 30304 30321 30325 30333 30343 30348 30353 30355 30357 30361 30368 30369 30370 30371 30375 30377 30392 30394 30398 31106 31107 31126 31136 31139 31141 31193 31195 31196 30060 30062 30064 30067 30008 30006 30007 30090 30339 30350 30327 30328 30342 30358 31150 31156
12100,"Atlantic City-Hammonton, NJ",Atlantic City,New Jersey,NJ,34,Atlantic,34001,39.3797,-74.4527,Atlantic County,34001,12100,08401 08404 08405 08037
12220,"Auburn-Opelika, AL",Auburn,Alabama,AL,1,Lee,01081,32.6087,-85.4899,Lee County,1081,12220,36849 36832 36830 36831 36804 36801 36803
12260,"Augusta-Richmond County, GA-SC",Augusta,Georgia,GA,13,Richmond,13245,33.3645,-82.0708,"Burke County, Columbia County, Lincoln County, McDuffie County, Richmond County, Aiken County, Edgefield County","13033, 13073, 13181, 13189, 13245, 45003, 45037",12260,30912 30815 30812 30907 30906 30904 30901 30905 30909 30805 30914 30916 30917 30919 30999
12420,"Austin-Round Rock-Georgetown, TX",Austin,Texas,TX,48,Travis,48453,30.3004,-97.7522,"Bastrop County, Caldwell County, Hays County, Travis County, Williamson County","48021, 48055, 48209, 48453, 48491",12420,78749 78748 78741 78742 78745 78744 78747 78746 78717 78712 78719 78617 78739 78735 78730 78731 78732 78733 78705 78704 78701 78703 78702 78758 78759 78752 78753 78750 78751 78756 78757 78754 78652 78723 78722 78721 78727 78726 78725 78724 78729 78728 73301 73344 78651 78680 78708 78709 78710 78711 78713 78714 78715 78718 78720 78755 78760 78761 78762 78763 78765 78766 78767 78768 78772 78773 78774 78778 78779 78783 78799 78633 78626 78628 78627 78681 78664 78665 78682 78683 78666 78667
12540,"Bakersfield, CA",Bakersfield,California,CA,6,Kern,06029,35.3529,-119.0359,Kern County,6029,12540,93306 93307 93304 93305 93301 93309 93314 93311 93313 93312 93302 93383 93384 93385 93387 93389 93390
12580,"Baltimore-Columbia-Towson, MD",Baltimore,Maryland,MD,24,Baltimore,24510,39.3051,-76.6144,"Anne Arundel County, Baltimore County, Carroll County, Harford County, Howard County, ""Queen Annes County"", Baltimore city","24003, 24005, 24013, 24025, 24027, 24035, 24510",12580,21218 21211 21210 21213 21212 21215 21214 21217 21216 21231 21230 21239 21251 21209 21202 21206 21207 21205 21226 21201 21223 21224 21225 21229 21203 21233 21263 21264 21270 21273 21275 21278 21279 21281 21287 21290 21297 21298 21044 21045 21046 21029 21150 21210 21212 21239 21252 21209 21204 21286 21139 21284 21285
12620,"Bangor, ME",Bangor,Maine,ME,23,Penobscot,23019,44.8322,-68.7906,Penobscot County,23019,12620,04401 04402
12700,"Barnstable Town, MA",Barnstable,Massachusetts,MA,25,Barnstable,25001,41.6722,-70.3599,Barnstable County,25001,12700,02635 02637 02630 02632 02601 02655 02672 02675 02647 02648 02668 02634
12940,"Baton Rouge, LA",Baton Rouge,Louisiana,LA,22,East Baton Rouge,22033,30.4418,-91.131,"Ascension Parish, Assumption Parish, East Baton Rouge Parish, East Feliciana Parish, Iberville Parish, Livingston Parish, Pointe Coupee Parish, St. Helena Parish, West Baton Rouge Parish, West Feliciana Parish","22005, 22007, 22033, 22037, 22047, 22063, 22077, 22091, 22121, 22125",12940,70836 70808 70809 70802 70803 70801 70806 70807 70805 70820 70819 70811 70815 70814 70816 70804 70813 70821 70822 70823 70825 70827 70831 70833 70835 70873 70874 70891 70892 70893 70894 70895 70898
12980,"Battle Creek, MI",Battle Creek,Michigan,MI,26,Calhoun,26025,42.2986,-85.2296,Calhoun County,26025,12980,49015 49037 49016
13020,"Bay City, MI",Bay City,Michigan,MI,26,Bay,26017,43.5903,-83.8886,Bay County,26017,13020,48706 48708
13140,"Beaumont-Port Arthur, TX",Beaumont,Texas,TX,48,Jefferson,48245,30.0849,-94.1451,"Hardin County, Jefferson County, Orange County","48199, 48245, 48361",13140,77708 77705 77706 77707 77701 77702 77703 77713 77704 77710 77720 77725 77726 77655 77640 77642 77611 77641 77643
13220,"Beckley, WV",Beckley,West Virginia,WV,54,Raleigh,54081,37.7878,-81.1841,"Fayette County, Raleigh County","54019, 54081",13220,25801
13380,"Bellingham, WA",Bellingham,Washington,WA,53,Whatcom,53073,48.7543,-122.4687,Whatcom County,53073,13380,98229 98225 98226 98228
13460,"Bend, OR",Bend,Oregon,OR,41,Deschutes,41017,44.0562,-121.3087,Deschutes County,41017,13460,97702 97701 97703 97708 97709
13740,"Billings, MT",Billings,Montana,MT,30,Yellowstone,30111,45.7891,-108.5524,"Carbon County, Stillwater County, Yellowstone County","30009, 30095, 30111",13740,59106 59105 59102 59101 59104 59107 59108 59115 59116 59117
13780,"Binghamton, NY",Binghamton,New York,NY,36,Broome,36007,42.1014,-75.9093,"Broome County, Tioga County","36007, 36107",13780,13904 13905 13901 13903
13820,"Birmingham-Hoover, AL",Birmingham,Alabama,AL,1,Jefferson,01073,33.5277,-86.7987,"Bibb County, Blount County, Chilton County, Jefferson County, St. Clair County, Shelby County","01007, 01009, 01021, 01073, 01115, 01117",13820,35218 35214 35215 35217 35210 35211 35212 35213 35243 35242 35224 35221 35222 35228 35203 35207 35206 35205 35204 35209 35208 35254 35068 35061 35234 35235 35233 35201 35202 35220 35232 35237 35238 35246 35249 35255 35259 35261 35270 35282 35283 35285 35287 35290 35291 35292 35294 35295 35297 35298 35216 35244 35242 35080 35226 35236 35260
13900,"Bismarck, ND",Bismarck,North Dakota,ND,38,Burleigh,38015,46.8144,-100.7694,"Burleigh County, Morton County, Oliver County","38015, 38059, 38065",13900,58505 58504 58501 58503 58507
13980,"Blacksburg-Christiansburg, VA ",Blacksburg,Virginia,VA,51,Montgomery,51121,37.23,-80.4279,"Giles County, Montgomery County, Pulaski County, Radford city","51071, 51121, 51155, 51750",13980,24060 24061 24062 24063 24111 24073 24068
14010,"Bloomington, IL",Bloomington,Illinois,IL,17,McLean,17113,40.4757,-88.9703,McLean County,17113,14010,61701 61705 61704 61709 61710 61791
14020,"Bloomington, IN",Bloomington,Indiana,IN,18,Monroe,18105,39.1637,-86.5257,"Monroe County, Owen County","18105, 18119",14020,47406 47408 47401 47403 47404 47405 47407
14100,"Bloomsburg-Berwick, PA",Bloomsburg,Pennsylvania,PA,42,Columbia,42037,41.0027,-76.4561,"Columbia County, Montour County","42037, 42093",14100,18603 17815
14260,"Boise City, ID",Boise City,Idaho,ID,16,Ada,16001,43.6007,-116.2312,"Ada County, Boise County, Canyon County, Gem County, Owyhee County","16001, 16015, 16027, 16045, 16073",14260,83703 83702 83705 83704 83709 83716 83706 83712 83713 83701 83708 83715 83717 83720 83722 83724 83725 83728 83729 83735 83756 83799
14460,"Boston-Cambridge-Newton, MA-NH",Boston,Massachusetts,MA,25,Suffolk,25025,42.3188,-71.0846,"Norfolk County, Plymouth County, Suffolk County, Essex County, Middlesex County, Rockingham County, Strafford County","25021, 25023, 25025, 25009, 25017, 33015, 33017",14460,02120 02121 02122 02124 02125 02126 02127 02128 02129 02467 02210 02215 02119 02118 02111 02110 02113 02115 02114 02116 02199 02134 02136 02135 02132 02131 02130 02203 02163 02152 02108 02109 02112 02117 02123 02133 02137 02196 02201 02205 02206 02211 02212 02217 02222 02241 02266 02283 02284 02293 02297 02298 02455 02142 02140 02141 02139 02138 02238 02477 01701 01702 01703 01704 01705 02464 02467 02466 02461 02462 02468 02465 02460 02459 02458 02456 02495 02452 02451 02453 02454
14500,"Boulder, CO ",Boulder,Colorado,CO,8,Boulder,08013,40.0249,-105.2523,Boulder County,8013,14500,80310 80304 80305 80302 80303 80301 80307 80309 80314
14540,"Bowling Green, KY",Bowling Green,Kentucky,KY,21,Warren,21227,36.9719,-86.4373,"Allen County, Butler County, Edmonson County, Warren County","21003, 21031, 21061, 21227",14540,42104 42102 42103 42101
14740,"Bremerton-Silverdale-Port Orchard, WA",Bremerton,Washington,WA,53,Kitsap,53035,47.5436,-122.7122,Kitsap County,53035,14740,98312 98314 98310 98367 98337 98366 98367 98311 98370 98383
14860,"Bridgeport-Stamford-Norwalk, CT",Bridgeport,Connecticut,CT,9,Fairfield,09001,41.1918,-73.1953,Fairfield County,9001,14860,06605 06604 06607 06606 06608 06610 06601 06602 06810 06811 06813 06854 06855 06856 06850 06851 06853 06852 06857 06858 06906 06907 06905 06902 06903 06901 06904 06910 06911 06912 06913 06914 06926 06927
15180,"Brownsville-Harlingen, TX",Brownsville,Texas,TX,48,Cameron,48061,25.998,-97.4565,Cameron County,48061,15180,78521 78520 78526 78575 78578 78550 78552 78551 78553
15260,"Brunswick, GA",Brunswick,Georgia,GA,13,Glynn,13127,31.145,-81.474,"Brantley County, Glynn County, McIntosh County","13025, 13127, 13191",15260,31520 31521
15380,"Buffalo-Cheektowaga, NY",Buffalo,New York,NY,36,Erie,36029,42.9016,-78.8487,"Erie County, Niagara County","36029, 36063",15380,14208 14209 14202 14203 14201 14206 14207 14204 14220 14222 14218 14211 14210 14213 14212 14215 14214 14216 14205 14233 14240 14263 14264 14267 14269 14270 14272 14273 14276 14280
15500,"Burlington, NC",Burlington,North Carolina,NC,37,Alamance,37001,36.0758,-79.4686,Alamance County,37001,15500,27217 27215
15540,"Burlington-South Burlington, VT",Burlington,Vermont,VT,50,Chittenden,50007,44.4877,-73.2314,"Chittenden County, Franklin County, Grand Isle County","50007, 50011, 50013",15540,05405 05401 05408 05406 05403 05407
15680,"California-Lexington Park, MD",California,Maryland,MD,24,St. Mary's,24037,38.2969,-76.4949,"""St. Marys County""",24037,15680,20653 20619 20634 20653
15940,"Canton-Massillon, OH",Canton,Ohio,OH,39,Stark,39151,40.8075,-81.3677,"Carroll County, Stark County","39019, 39151",15940,44714 44710 44702 44703 44706 44707 44704 44705 44708 44709 44711 44750 44799 44647 44646
15980,"Cape Coral-Fort Myers, FL",Cape Coral,Florida,FL,12,Lee,12071,26.6446,-81.9956,Lee County,12071,15980,33991 33990 33993 33914 33909 33904 33910 33911 33915 33913 33916 33966 33901 33907 33905 33902 33994
16020,"Cape Girardeau, MO-IL",Cape Girardeau,Missouri,MO,29,Cape Girardeau,29031,37.3108,-89.5597,"Alexander County, Bollinger County, Cape Girardeau County","17003, 29017, 29031",16020,63703 63701
16060,"Carbondale-Marion, IL",Carbondale,Illinois,IL,17,Jackson,17077,37.7221,-89.2238,"Jackson County, Johnson County, Williamson County","17077, 17087, 17199",16060,62901 62902 62903 62922 62959
16180,"Carson City, NV",Carson City,Nevada,NV,32,Carson City,32510,39.1512,-119.7474,Carson City,32510,16180,89701 89703 89702 89705 89706 89711 89712 89713 89714
16220,"Casper, WY",Casper,Wyoming,WY,56,Natrona,56025,42.842,-106.3207,Natrona County,56025,16220,82604 82601 82609 82602 82605
16300,"Cedar Rapids, IA",Cedar Rapids,Iowa,IA,19,Linn,19113,41.9665,-91.6782,"Benton County, Jones County, Linn County","19011, 19105, 19113",16300,52404 52405 52402 52401 52411 52403 52406 52407 52408 52409 52410 52497 52498 52499
16540,"Chambersburg-Waynesboro, PA",Chambersburg,Pennsylvania,PA,42,Franklin,42055,39.9315,-77.6556,Franklin County,42055,16540,17201 17268
16580,"Champaign-Urbana, IL",Champaign,Illinois,IL,17,Champaign,17019,40.1144,-88.2735,"Champaign County, Piatt County","17019, 17147",16580,61822 61820 61821 61824 61825 61826 61801 61802 61803
16620,"Charleston, WV",Charleston,West Virginia,WV,54,Kanawha,54039,38.3484,-81.6323,"Boone County, Clay County, Jackson County, Kanawha County, Lincoln County","54005, 54015, 54035, 54039, 54043",16620,25305 25304 25303 25302 25301 25311 25312 25314 25317 25321 25322 25323 25324 25325 25326 25327 25328 25329 25330 25331 25332 25333 25334 25335 25336 25337 25338 25339 25350 25364 25375 25387 25392 25396
16700,"Charleston-North Charleston, SC",Charleston,South Carolina,SC,45,Charleston,45019,32.8153,-79.9628,"Berkeley County, Charleston County, Dorchester County","45015, 45019, 45035",16700,29414 29424 29455 29407 29401 29403 29409 29492 29412 29402 29413 29417 29422 29425 29457 29423 29420 29456 29485 29483 29404 29405 29406 29418 29416 29419
16740,"Charlotte-Concord-Gastonia, NC-SC",Charlotte,North Carolina,NC,37,Mecklenburg,37119,35.208,-80.8304,"Anson County, Cabarrus County, Gaston County, Iredell County, Lincoln County, Mecklenburg County, Rowan County, Union County, Chester County, Lancaster County, York County","37007, 37025, 37071, 37097, 37109, 37119, 37159, 37179, 45023, 45057, 45091",16740,28269 28262 28105 28280 28282 28209 28208 28205 28204 28207 28206 28203 28202 28227 28226 28278 28270 28273 28277 28134 28216 28217 28214 28215 28212 28213 28210 28211 28244 28126 28130 28201 28218 28219 28220 28221 28222 28223 28224 28228 28229 28230 28231 28232 28233 28234 28235 28237 28241 28242 28243 28246 28247 28253 28254 28255 28256 28258 28260 28263 28265 28266 28271 28272 28274 28275 28281 28284 28285 28287 28288 28289 28290 28296 28297 28299 28025 28027 28026 28054 28056 28052 29732 29733 29730 29731
16820,"Charlottesville, VA ",Charlottesville,Virginia,VA,51,Charlottesville,51540,38.0375,-78.4855,"Albemarle County, Fluvanna County, Greene County, Nelson County, Charlottesville city","51003, 51065, 51079, 51125, 51540",16820,22901 22902 22903 22905 22906 22909
16860,"Chattanooga, TN-GA",Chattanooga,Tennessee,TN,47,Hamilton,47065,35.0657,-85.2488,"Catoosa County, Dade County, Walker County, Hamilton County, Marion County, Sequatchie County","13047, 13083, 13295, 47065, 47115, 47153",16860,37415 37416 37410 37411 37419 37409 37421 37363 37408 37403 37402 37407 37405 37406 37404 37343 37351 37350 37401 37414 37424 37450
16940,"Cheyenne, WY",Cheyenne,Wyoming,WY,56,Laramie,56021,41.1351,-104.79,Laramie County,56021,16940,82009 82007 82001 82002 82003
16980,"Chicago-Naperville-Elgin, IL-IN-WI",Chicago,Illinois,IL,17,Cook,17031,41.8373,-87.6862,"Cook County, DuPage County, Grundy County, McHenry County, Will County, DeKalb County, Kane County, Kendall County, Jasper County, Lake County, Newton County, Porter County, Lake County, Kenosha County","17031, 17043, 17063, 17111, 17197, 17037, 17089, 17093, 18073, 18089, 18111, 18127, 17097, 55059",16980,60490 60440 60018 60649 60641 60640 60643 60642 60645 60644 60647 60646 60616 60617 60614 60615 60612 60613 60610 60611 60618 60619 60827 60638 60639 60634 60636 60637 60630 60631 60632 60633 60605 60604 60607 60606 60601 60603 60602 60609 60608 60106 60661 60660 60659 60652 60653 60651 60656 60657 60654 60655 60623 60622 60621 60620 60626 60625 60624 60629 60628 60707 60499 60664 60666 60668 60669 60670 60673 60674 60675 60677 60678 60680 60681 60682 60684 60685 60686 60687 60688 60689 60690 60694 60695 60696 60699 60018 60016 60017 60019 60120 60123 60124 60121 60122 60202 60201 60204 60208 60010 60192 60195 60169 60120 60094 60159 60179 60540 60563 60564 60565 60567 60193 60195 60194 60173 60168 60196 60076 60077 60203 46409 46408 46407 46406 46405 46404 46403 46402
17020,"Chico, CA",Chico,California,CA,6,Butte,06007,39.7575,-121.8152,Butte County,6007,17020,95973 95926 95928 95927 95929 95976
17140,"Cincinnati, OH-KY-IN",Cincinnati,Ohio,OH,39,Hamilton,39061,39.1413,-84.5061,"Dearborn County, Franklin County, Ohio County, Union County, Boone County, Bracken County, Campbell County, Gallatin County, Grant County, Kenton County, Pendleton County, Brown County, Butler County, Clermont County, Hamilton County, Warren County","18029, 18047, 18115, 18161, 21015, 21023, 21037, 21077, 21081, 21117, 21191, 39015, 39017, 39025, 39061, 39165",17140,45219 45213 45212 45211 45217 45216 45214 45233 45225 45237 45229 45226 45227 45224 45232 45230 45204 45205 45206 45207 45202 45203 45208 45209 45223 45239 45238 45220 45201 45221 45250 45254 45262 45263 45264 45267 45268 45269 45270 45271 45273 45274 45275 45296 45299
17300,"Clarksville, TN-KY",Clarksville,Tennessee,TN,47,Montgomery,47125,36.5695,-87.342,"Christian County, Trigg County, Montgomery County, Stewart County","21047, 21221, 47125, 47161",17300,42223 37043 37042 37040 37041 37044
17420,"Cleveland, TN",Cleveland,Tennessee,TN,47,Bradley,47011,35.1817,-84.8707,"Bradley County, Polk County","47011, 47139",17420,37312 37311 37320
17460,"Cleveland-Elyria, OH",Cleveland,Ohio,OH,39,Cuyahoga,39035,41.4767,-81.6804,"Cuyahoga County, Geauga County, Lake County, Lorain County, Medina County","39035, 39055, 39085, 39093, 39103",17460,44135 44128 44119 44113 44112 44111 44110 44115 44114 44144 44127 44120 44104 44105 44106 44101 44102 44103 44108 44109 44181 44190 44191 44192 44193 44194 44195 44197 44198 44199 44035 44036
17660,"Coeur d'Alene, ID",Coeur d'Alene,Idaho,ID,16,Kootenai,16055,47.7041,-116.7935,Kootenai County,16055,17660,83815 83814 83816
17780,"College Station-Bryan, TX",College Station,Texas,TX,48,Brazos,48041,30.5852,-96.296,"Brazos County, Burleson County, Robertson County","48041, 48051, 48395",17780,77808 77803 77802 77801 77807 77805 77806 77845 77840 77841 77842 77843 77844 77881
17820,"Colorado Springs, CO",Colorado Springs,Colorado,CO,8,El Paso,08041,38.8674,-104.7606,"El Paso County, Teller County","08041, 08119",17820,80951 80909 80904 80905 80906 80907 80903 80939 80938 80910 80917 80916 80915 80914 80919 80918 80927 80924 80925 80922 80923 80920 80921 80929 80901 80932 80934 80935 80936 80937 80941 80942 80946 80947 80949 80950 80960 80962 80977 80995 80997
17860,"Columbia, MO",Columbia,Missouri,MO,29,Boone,29019,38.9478,-92.3256,"Boone County, Cooper County, Howard County","29019, 29053, 29089",17860,65202 65203 65201 65215 65211 65216 65217 65218 65299
17900,"Columbia, SC",Columbia,South Carolina,SC,45,Richland,45079,34.0376,-80.9037,"Calhoun County, Fairfield County, Kershaw County, Lexington County, Richland County, Saluda County","45017, 45039, 45055, 45063, 45079, 45081",17900,29202 29203 29205 29201 29207 29204 29208 29209 29212 29225 29229 29147 29210 29206 29214 29215 29216 29217 29218 29220 29224 29226 29240 29250
17980,"Columbus, GA-AL",Columbus,Georgia,GA,13,Muscogee,13215,32.51,-84.8771,"Russell County, Chattahoochee County, Harris County, Marion County, Muscogee County, Stewart County, Talbot County","01113, 13053, 13145, 13197, 13215, 13259, 13263",17980,31829 31820 31909 31904 31905 31906 31907 31901 31903 31808 31902 31908 31914 31917 31993 31995 31997 31998 31999
18020,"Columbus, IN",Columbus,Indiana,IN,18,Bartholomew,18005,39.2093,-85.9183,Bartholomew County,18005,18020,47201 47203 47202
18140,"Columbus, OH",Columbus,Ohio,OH,39,Franklin,39049,39.9862,-82.985,"Delaware County, Fairfield County, Franklin County, Hocking County, Licking County, Madison County, Morrow County, Perry County, Pickaway County, Union County","39041, 39045, 39049, 39073, 39089, 39097, 39117, 39127, 39129, 39159",18140,43026 43109 43054 43220 43221 43222 43223 43224 43081 43228 43227 43211 43213 43212 43215 43214 43217 43219 43002 43004 43068 43085 43240 43229 43235 43232 43231 43230 43119 43110 43017 43016 43137 43210 43202 43203 43201 43206 43207 43204 43205 43209 43218 43236 43251 43260 43266 43268 43270 43271 43272 43279 43287 43291
18580,"Corpus Christi, TX",Corpus Christi,Texas,TX,48,Nueces,48355,27.726,-97.3755,"Nueces County, San Patricio County","48355, 48409",18580,78373 78408 78409 78406 78407 78404 78405 78402 78401 78419 78418 78414 78417 78416 78411 78410 78413 78412 78403 78426 78427 78460 78463 78465 78466 78467 78468 78469 78472 78480
18700,"Corvallis, OR",Corvallis,Oregon,OR,41,Benton,41003,44.5697,-123.278,Benton County,41003,18700,97333 97331 97330 97339
18880,"Crestview-Fort Walton Beach-Destin, FL",Crestview,Florida,FL,12,Okaloosa,12091,30.748,-86.5784,"Okaloosa County, Walton County","12091, 12131",18880,32539 32536 32541 32540 32548 32547 32549
19060,"Cumberland, MD-WV",Cumberland,Maryland,MD,24,Allegany,24001,39.6515,-78.7585,"Allegany County, Mineral County","24001, 54057",19060,21502 21501 21503 21504 21505
19100,"Dallas-Fort Worth-Arlington, TX",Dallas,Texas,TX,48,Dallas,48113,32.7936,-96.7662,"Collin County, Dallas County, Denton County, Ellis County, Hunt County, Kaufman County, Rockwall County, Johnson County, Parker County, Tarrant County, Wise County","48085, 48113, 48121, 48139, 48231, 48257, 48397, 48251, 48367, 48439, 48497",19100,76040 76006 76001 76002 76018 76013 76012 76011 76010 76017 76016 76015 76014 76003 76004 76005 76007 76019 76094 76096 75287 75098 75233 75254 75251 75252 75253 75032 75238 75232 75230 75231 75236 75237 75234 75235 75088 75087 75243 75246 75244 75249 75248 75051 75166 75210 75211 75212 75214 75215 75216 75217 75218 75219 75390 75182 75229 75228 75220 75223 75225 75224 75227 75226 75241 75240 75247 75270 75043 75207 75206 75205 75204 75203 75202 75201 75209 75208 75019 75221 75222 75242 75250 75260 75262 75263 75264 75266 75267 75277 75283 75284 75285 75301 75303 75312 75313 75315 75320 75336 75339 75342 75354 75355 75356 75357 75358 75359 75360 75367 75370 75371 75372 75373 75374 75376 75378 75379 75380 75382 75389 75392 75393 75394 75395 75397 75398 76207 76205 76201 76208 76209 76210 76259 76202 76203 76204 76206 76164 76040 76134 76135 76137 76131 76132 76133 76109 76108 76105 76104 76107 76106 76103 76102 76155 76006 76053 76052 76129 76123 76120 76244 76008 76179 76177 76036 76140 76262 76118 76119 76116 76117 76114 76115 76112 76110 76111 76127 76126 76101 76113 76121 76122 76124 76130 76147 76150 76161 76162 76163 76166 76190 76191 76193 76195 76196 76197 76198 76199 76051 76099 75063 75061 75060 75038 75039 75062 75014 75015 75016 75017 75059 75261 75326 75368 75093 75023 75025 75024 75074 75075 75026 75086 75081 75080 75082 75045 75083 75085
19140,"Dalton, GA",Dalton,Georgia,GA,13,Whitfield,13313,34.769,-84.9712,"Murray County, Whitfield County","13213, 13313",19140,30721 30720 30719 30722
19180,"Danville, IL",Danville,Illinois,IL,17,Vermilion,17183,40.1423,-87.6114,Vermilion County,17183,19180,61834 61832
19300,"Daphne-Fairhope-Foley, AL",Daphne,Alabama,AL,1,Baldwin,01003,30.6286,-87.8866,Baldwin County,1003,19300,36527 36526 36532 36535 36530 36536 36542 36547
19340,"Davenport-Moline-Rock Island, IA-IL",Davenport,Iowa,IA,19,Scott,19163,41.5563,-90.6052,"Henry County, Mercer County, Rock Island County, Scott County","17073, 17131, 17161, 19163",19340,52802 52803 52801 52806 52807 52804 52805 52808 52809 61265 61266 61201 61204
19430,"Dayton-Kettering, OH",Dayton,Ohio,OH,39,Montgomery,39113,39.7797,-84.1998,"Greene County, Miami County, Montgomery County","39057, 39109, 39113",19430,45432 45402 45403 45406 45404 45405 45409 45428 45420 45424 45410 45414 45417 45419 45377 45401 45412 45422 45423 45481 45490 45440 45409 45429 45420 45419 45469 45479
19460,"Decatur, AL",Decatur,Alabama,AL,1,Morgan,01103,34.573,-86.9906,"Lawrence County, Morgan County","01079, 01103",19460,35603 35601 35602 35609
19500,"Decatur, IL",Decatur,Illinois,IL,17,Macon,17115,39.8556,-88.9337,Macon County,17115,19500,62522 62523 62521 62526 62535 62524 62525
19660,"Deltona-Daytona Beach-Ormond Beach, FL",Deltona,Florida,FL,12,Volusia,12127,28.905,-81.2137,"Flagler County, Volusia County","12035, 12127",19660,32124 32174 32117 32114 32118 32119 32115 32116 32120 32121 32126 32198 32724 32720 32721 32725 32738 32739 32174 32176 32173 32175
19740,"Denver-Aurora-Lakewood, CO ",Denver,Colorado,CO,8,Denver,08031,39.7621,-104.8759,"Adams County, Arapahoe County, Broomfield County, Clear Creek County, Denver County, Douglas County, Elbert County, Gilpin County, Jefferson County, Park County","08001, 08005, 08014, 08019, 08031, 08035, 08039, 08047, 08059, 08093",19740,80247 80137 80045 80018 80019 80016 80017 80014 80015 80012 80013 80010 80011 80040 80041 80042 80044 80046 80047 80023 80021 80020 80516 80038 80122 80121 80112 80016 80015 80111 80155 80161 80640 80022 80037 80264 80230 80231 80236 80237 80235 80238 80239 80123 80249 80247 80246 80290 80293 80294 80218 80219 80210 80211 80212 80216 80221 80220 80223 80222 80224 80227 80209 80207 80206 80205 80204 80202 80014 80203 80208 80217 80243 80244 80248 80250 80256 80257 80259 80261 80262 80265 80266 80271 80273 80274 80281 80291 80299 80465 80232 80235 80214 80215 80227 80226 80228 80201 80225
19780,"Des Moines-West Des Moines, IA",Des Moines,Iowa,IA,19,Polk,19153,41.5725,-93.6105,"Dallas County, Guthrie County, Jasper County, Madison County, Polk County, Warren County","19049, 19077, 19099, 19121, 19153, 19181",19780,50309 50312 50314 50316 50317 50310 50311 50313 50319 50321 50320 50315 50301 50302 50303 50304 50305 50306 50307 50308 50318 50328 50329 50330 50331 50332 50335 50340 50380 50381 50391 50392 50393 50394 50395 50396 50936 50940 50947 50950 50980 50981 50982 50983 50265 50266 50263 50061 50336 50339 50359 50360 50361 50362 50363 50364 50367 50368 50369 50398
19820,"Detroit-Warren-Dearborn, MI",Detroit,Michigan,MI,26,Wayne,26163,42.3834,-83.1024,"Wayne County, Lapeer County, Livingston County, Macomb County, Oakland County, St. Clair County","26163, 26087, 26093, 26099, 26125, 26147",19820,48128 48120 48126 48124 48121 48123 48209 48208 48201 48207 48205 48204 48203 48206 48227 48238 48239 48234 48235 48233 48202 48243 48214 48215 48216 48217 48210 48211 48212 48213 48219 48228 48224 48226 48221 48223 48231 48232 48244 48255 48260 48264 48266 48267 48268 48269 48272 48275 48277 48278 48279 48288 48336 48335 48334 48331 48152 48150 48154 48151 48153 48377 48375 48374 48167 48376 48342 48340 48341 48343 48033 48034 48075 48076 48037 48086 48180 48098 48083 48085 48084 48007 48099 48093 48092 48091 48089 48088 48397
20020,"Dothan, AL",Dothan,Alabama,AL,1,Houston,01069,31.2335,-85.4069,"Geneva County, Henry County, Houston County","01061, 01067, 01069",20020,36303 36301 36305 36321 36302 36304
20100,"Dover, DE",Dover,Delaware,DE,10,Kent,10001,39.161,-75.5203,Kent County,10001,20100,19902 19901 19904 19905 19906
20220,"Dubuque, IA",Dubuque,Iowa,IA,19,Dubuque,19061,42.5008,-90.7067,Dubuque County,19061,20220,52002 52003 52001 52004 52099
20260,"Duluth, MN-WI",Duluth,Minnesota,MN,27,St. Louis,27137,46.7756,-92.1392,"Carlton County, Lake County, St. Louis County, Douglas County","27017, 27075, 27137, 55031",20260,55803 55802 55805 55804 55808 55810 55811 55812 55807 55806 55815 55816
20500,"Durham-Chapel Hill, NC",Durham,North Carolina,NC,37,Durham,37063,35.9794,-78.9031,"Chatham County, Durham County, Granville County, Orange County, Person County","37037, 37063, 37077, 37135, 37145",20500,27516 27514 27517 27515 27599 27703 27705 27704 27707 27701 27709 27712 27713 27706 27708 27710 27715 27717 27722
20700,"East Stroudsburg, PA",East Stroudsburg,Pennsylvania,PA,42,Monroe,42089,41.0023,-75.1779,Monroe County,42089,20700,18301
20740,"Eau Claire, WI",Eau Claire,Wisconsin,WI,55,Eau Claire,55035,44.8199,-91.4949,"Chippewa County, Eau Claire County","55017, 55035",20740,54703 54701 54702
20940,"El Centro, CA",El Centro,California,CA,6,Imperial,06025,32.7867,-115.5586,Imperial County,6025,20940,92243 92244
21060,"Elizabethtown-Fort Knox, KY",Elizabethtown,Kentucky,KY,21,Hardin,21093,37.703,-85.877,"Hardin County, Larue County, Meade County","21093, 21123, 21163",21060,42701 42702 40121 40122
21140,"Elkhart-Goshen, IN",Elkhart,Indiana,IN,18,Elkhart,18039,41.6916,-85.9628,Elkhart County,18039,21140,46514 46517 46516 46515 46528 46526 46527
21300,"Elmira, NY",Elmira,New York,NY,36,Chemung,36015,42.0938,-76.8097,Chemung County,36015,21300,14901 14905 14904 14902
21340,"El Paso, TX",El Paso,Texas,TX,48,El Paso,48141,31.8479,-106.4309,"El Paso County, Hudspeth County","48141, 48229",21340,79901 79902 79903 79904 79905 79906 79907 79930 79932 79935 79934 79936 79912 79911 79835 79922 79920 79927 79924 79925 79915 79910 79913 79914 79917 79923 79926 79931 79937 79940 79941 79943 79944 79945 79946 79947 79948 79949 79950 79951 79952 79953 79954 79955 79958 79960 79961 79968 79976 79978 79980 79995 79996 79997 79998 79999 88540 88541 88542 88543 88544 88545 88546 88547 88548 88549 88550 88553 88554 88555 88556 88557 88558 88559 88560 88561 88562 88563 88565 88566 88567 88568 88569 88570 88571 88572 88573 88574 88575 88576 88577 88578 88579 88580 88581 88582 88583 88584 88585 88586 88588 88590 88595
21420,"Enid, OK",Enid,Oklahoma,OK,40,Garfield,40047,36.4061,-97.8701,Garfield County,40047,21420,73701 73703 73705 73702 73706
21500,"Erie, PA",Erie,Pennsylvania,PA,42,Erie,42049,42.1168,-80.0733,Erie County,42049,21500,16546 16510 16511 16508 16502 16507 16504 16503 16501 16512 16514 16522 16530 16534 16538 16541 16544 16550 16553
21660,"Eugene-Springfield, OR",Eugene,Oregon,OR,41,Lane,41039,44.0563,-123.1173,Lane County,41039,21660,97405 97404 97401 97403 97402 97440 97477 97478 97403 97475
21780,"Evansville, IN-KY",Evansville,Indiana,IN,18,Vanderburgh,18163,37.9881,-87.5341,"Posey County, Vanderburgh County, Warrick County, Henderson County","18129, 18163, 18173, 21101",21780,47708 47714 47715 47710 47711 47713 47701 47702 47703 47704 47705 47706 47716 47719 47722 47724 47728 47730 47731 47732 47733 47734 47735 47736 47737 47740 47747 47750
21820,"Fairbanks, AK ",Fairbanks,Alaska,AK,2,Fairbanks North Star,02090,64.8353,-147.6534,Fairbanks North Star Borough,2090,21820,99701 99703 99707
22020,"Fargo, ND-MN",Fargo,North Dakota,ND,38,Cass,38017,46.8652,-96.8292,"Clay County, Cass County","27027, 38017",22020,58102 58104 58103 58105 58106 58107 58108 58109 58121 58122 58124 58125 58126
22140,"Farmington, NM",Farmington,New Mexico,NM,35,San Juan,35045,36.7555,-108.1823,San Juan County,35045,22140,87401 87402 87415
22180,"Fayetteville, NC",Fayetteville,North Carolina,NC,37,Cumberland,37051,35.0846,-78.9776,"Cumberland County, Harnett County, Hoke County","37051, 37085, 37093",22180,28304 28305 28306 28307 28301 28303 28308 28390 28311 28310 28314 28302 28309
22220,"Fayetteville-Springdale-Rogers, AR",Fayetteville,Arkansas,AR,5,Washington,05143,36.0713,-94.166,"Benton County, Madison County, Washington County","05007, 05087, 05143",22220,72712 72704 72703 72701 72702 72758 72756 72718 72716 72757 72764 72762 72765 72766
22380,"Flagstaff, AZ",Flagstaff,Arizona,AZ,4,Coconino,04005,35.1872,-111.6195,Coconino County,4005,22380,86001 86011 86004 86002 86005
22420,"Flint, MI",Flint,Michigan,MI,26,Genesee,26049,43.0235,-83.6922,Genesee County,26049,22420,48553 48551 48504 48505 48506 48507 48502 48503 48550 48552 48556 48557
22500,"Florence, SC",Florence,South Carolina,SC,45,Florence,45041,34.1781,-79.7877,"Darlington County, Florence County","45031, 45041",22500,29505 29506 29501 29502 29503 29504
22520,"Florence-Muscle Shoals, AL",Florence,Alabama,AL,1,Lauderdale,01077,34.8303,-87.6654,"Colbert County, Lauderdale County","01033, 01077",22520,35633 35630 35631 35632 35661 35662
22540,"Fond du Lac, WI",Fond du Lac,Wisconsin,WI,55,Fond du Lac,55039,43.7718,-88.4396,Fond du Lac County,55039,22540,54937 54935 54936
22660,"Fort Collins, CO",Fort Collins,Colorado,CO,8,Larimer,08069,40.5478,-105.0656,Larimer County,8069,22660,80521 80528 80526 80524 80525 80523 80527 80553
22900,"Fort Smith, AR-OK",Fort Smith,Arkansas,AR,5,Sebastian,05131,35.3493,-94.3695,"Crawford County, Franklin County, Sebastian County, Sequoyah County","05033, 05047, 05131, 40135",22900,72901 72904 72908 72903 72923 72916 72905 72906 72913 72914 72917 72918 72919
23060,"Fort Wayne, IN",Fort Wayne,Indiana,IN,18,Allen,18003,41.0886,-85.1437,"Allen County, Whitley County","18003, 18183",23060,46835 46845 46818 46814 46815 46816 46803 46802 46807 46806 46805 46804 46809 46808 46825 46801 46850 46851 46852 46853 46854 46855 46856 46857 46858 46859 46860 46861 46862 46863 46864 46865 46866 46867 46868 46869 46885 46895 46897
23420,"Fresno, CA",Fresno,California,CA,6,Fresno,06019,36.7831,-119.7941,Fresno County,6019,23420,93730 93650 93702 93703 93701 93706 93704 93705 93728 93720 93721 93722 93726 93727 93711 93710 93707 93708 93709 93714 93715 93716 93717 93718 93724 93729 93737 93740 93744 93745 93750 93755 93760 93761 93764 93765 93771 93772 93774 93775 93776 93777 93778 93779 93790 93791 93792 93793 93794 93844
23460,"Gadsden, AL",Gadsden,Alabama,AL,1,Etowah,01055,34.009,-86.0156,Etowah County,1055,23460,35901 35903 35904 35902
23540,"Gainesville, FL",Gainesville,Florida,FL,12,Alachua,12001,29.6804,-82.3458,"Alachua County, Gilchrist County, Levy County","12001, 12041, 12075",23540,32609 32607 32612 32653 32608 32603 32601 32605 32604 32610 32611 32614 32627 32635
23580,"Gainesville, GA",Gainesville,Georgia,GA,13,Hall,13139,34.2903,-83.8301,Hall County,13139,23580,30501 30507 30504
23900,"Gettysburg, PA",Gettysburg,Pennsylvania,PA,42,Adams,42001,39.8304,-77.2339,Adams County,42001,23900,17325
24020,"Glens Falls, NY",Glens Falls,New York,NY,36,Warren,36113,43.3109,-73.6459,"Warren County, Washington County","36113, 36115",24020,12801
24140,"Goldsboro, NC",Goldsboro,North Carolina,NC,37,Wayne,37191,35.3778,-77.972,Wayne County,37191,24140,27534 27530 27531 27532 27533
24220,"Grand Forks, ND-MN",Grand Forks,North Dakota,ND,38,Grand Forks,38035,47.9218,-97.0886,"Polk County, Grand Forks County","27119, 38035",24220,58202 58203 58201 58206 58208
24260,"Grand Island, NE",Grand Island,Nebraska,NE,31,Hall,31079,40.9214,-98.3584,"Hall County, Howard County, Merrick County","31079, 31093, 31121",24260,68803 68801
24300,"Grand Junction, CO",Grand Junction,Colorado,CO,8,Mesa,08077,39.0876,-108.5673,Mesa County,8077,24300,81505 81504 81507 81506 81501
24340,"Grand Rapids-Kentwood, MI",Grand Rapids,Michigan,MI,26,Kent,26081,42.962,-85.6562,"Ionia County, Kent County, Montcalm County, Ottawa County","26067, 26081, 26117, 26139",24340,49546 49507 49506 49505 49504 49503 49508 49501 49502 49514 49515 49523 49555 49588 49599 49548 49512 49546 49508 49518 49528 49560
24420,"Grants Pass, OR",Grants Pass,Oregon,OR,41,Josephine,41033,42.4333,-123.3317,Josephine County,41033,24420,97526 97527 97528
24500,"Great Falls, MT",Great Falls,Montana,MT,30,Cascade,30013,47.5022,-111.2995,Cascade County,30013,24500,59405 59404 59401 59406
24540,"Greeley, CO ",Greeley,Colorado,CO,8,Weld,08123,40.4151,-104.7706,Weld County,8123,24540,80634 80631 80632 80633 80638 80639
24580,"Green Bay, WI",Green Bay,Wisconsin,WI,55,Brown,55009,44.515,-87.9896,"Brown County, Kewaunee County, Oconto County","55009, 55061, 55083",24580,54311 54302 54304 54303 54301 54305 54306 54308
24660,"Greensboro-High Point, NC",Greensboro,North Carolina,NC,37,Guilford,37081,36.0956,-79.8269,"Guilford County, Randolph County, Rockingham County","37081, 37151, 37157",24660,27410 27455 27214 27408 27409 27403 27401 27406 27407 27405 27402 27404 27411 27412 27413 27417 27420 27427 27429 27435 27438 27495 27497 27498 27499 27282 27235 27262 27263 27265 27260 27261 27264 27268
24780,"Greenville, NC",Greenville,North Carolina,NC,37,Pitt,37147,35.5956,-77.3768,Pitt County,37147,24780,27834 27858 27833 27835 27836
24860,"Greenville-Anderson, SC",Greenville,South Carolina,SC,45,Greenville,45045,34.8353,-82.3647,"Anderson County, Greenville County, Laurens County, Pickens County","45007, 45045, 45059, 45077",24860,29624 29625 29621 29622 29614 29607 29605 29601 29609 29602 29603 29604 29612 29616
25060,"Gulfport-Biloxi, MS",Gulfport,Mississippi,MS,28,Harrison,28047,30.4271,-89.0703,"Hancock County, Harrison County, Jackson County, Stone County","28045, 28047, 28059, 28131",25060,39531 39530 39532 39534 39533 39535 39501 39503 39507 39502 39505 39506
25180,"Hagerstown-Martinsburg, MD-WV",Hagerstown,Maryland,MD,24,Washington,24043,39.6401,-77.7217,"Washington County, Berkeley County, Morgan County","24043, 54003, 54065",25180,21740 21742 21741 21747 21749 25403 25401 25404 25402
25220,"Hammond, LA",Hammond,Louisiana,LA,22,Tangipahoa,22105,30.5061,-90.4563,Tangipahoa Parish,22105,25220,70402 70403 70401 70404
25260,"Hanford-Corcoran, CA",Hanford,California,CA,6,Kings,06031,36.3274,-119.6549,Kings County,6031,25260,93212 93230
25420,"Harrisburg-Carlisle, PA",Harrisburg,Pennsylvania,PA,42,Dauphin,42043,40.2752,-76.8843,"Cumberland County, Dauphin County, Perry County","42041, 42043, 42099",25420,17013 17101 17102 17103 17104 17120 17110 17105 17108 17121 17122 17123 17124 17125 17126 17127 17128 17129 17130
25500,"Harrisonburg, VA ",Harrisonburg,Virginia,VA,51,Harrisonburg,51660,38.4361,-78.8735,"Rockingham County, Harrisonburg city","51165, 51660",25500,22801 22802 22807 22803
25540,"Hartford-East Hartford-Middletown, CT",Hartford,Connecticut,CT,9,Hartford,09003,41.7661,-72.6834,"Hartford County, Middlesex County, Tolland County","09003, 09007, 09013",25540, 06106 06105 06103 06120 06112 06160 06114 06101 06102 06104 06115 06123 06126 06127 06132 06133 06134 06140 06141 06142 06143 06144 06145 06146 06147 06150 06151 06152 06154 06167 06176 06183 06457 06459
25620,"Hattiesburg, MS",Hattiesburg,Mississippi,MS,28,Forrest,28035,31.3074,-89.317,"Covington County, Forrest County, Lamar County, Perry County","28031, 28035, 28073, 28111",25620,39401 39402 39406 39403 39407
25860,"Hickory-Lenoir-Morganton, NC",Hickory,North Carolina,NC,37,Catawba,37035,35.7425,-81.323,"Alexander County, Burke County, Caldwell County, Catawba County","37003, 37023, 37027, 37035",25860,28601 28602 28603 28645 28633 28655 28680
25940,"Hilton Head Island-Bluffton, SC",Hilton Head Island,South Carolina,SC,45,Beaufort,45013,32.1896,-80.7499,"Beaufort County, Jasper County","45013, 45053",25940,29910 29928 29926 29925 29938
25980,"Hinesville, GA",Hinesville,Georgia,GA,13,Liberty,13179,31.8247,-81.6135,"Liberty County, Long County","13179, 13183",25980,31313 31310
26140,"Homosassa Springs, FL",Homosassa Springs,Florida,FL,12,Citrus,12017,28.8118,-82.5392,Citrus County,12017,26140,34448 34446 34447
26300,"Hot Springs, AR",Hot Springs,Arkansas,AR,5,Garland,05051,34.4892,-93.0501,Garland County,5051,26300,71901 71913 71902 71914
26380,"Houma-Thibodaux, LA",Houma,Louisiana,LA,22,Terrebonne,22109,29.5799,-90.7058,"Lafourche Parish, Terrebonne Parish","22057, 22109",26380,70363 70360 70361 70301 70310
26420,"Houston-The Woodlands-Sugar Land, TX",Houston,Texas,TX,48,Harris,48201,29.7863,-95.3889,"Austin County, Brazoria County, Chambers County, Fort Bend County, Galveston County, Harris County, Liberty County, Montgomery County, Waller County","48015, 48039, 48071, 48157, 48167, 48201, 48291, 48339, 48473",26420,77520 77521 77522 77384 77301 77303 77304 77305 77551 77550 77554 77552 77553 77555 77069 77068 77061 77060 77063 77062 77065 77064 77067 77066 77036 77037 77034 77035 77032 77033 77030 77031 77038 77449 77489 77046 77045 77044 77040 77048 77201 77598 77018 77019 77015 77016 77017 77010 77011 77012 77013 77091 77093 77099 77053 77346 77345 77546 77547 77025 77024 77027 77026 77021 77020 77023 77022 77029 77028 77094 77096 77090 77098 77078 77079 77072 77073 77070 77071 77076 77077 77074 77075 77407 77047 77043 77041 77336 77339 77338 77003 77002 77007 77006 77005 77004 77009 77008 77571 77450 77082 77089 77088 77083 77081 77080 77087 77086 77085 77084 77092 77042 77054 77055 77056 77057 77058 77059 77396 77051 77506 77504 77001 77052 77202 77203 77204 77205 77206 77207 77208 77209 77210 77212 77213 77215 77216 77217 77218 77219 77220 77221 77222 77223 77225 77226 77227 77228 77229 77230 77231 77233 77234 77235 77236 77237 77241 77242 77243 77244 77245 77248 77249 77251 77252 77253 77254 77255 77256 77257 77259 77261 77262 77263 77266 77269 77270 77271 77272 77273 77274 77275 77282 77284 77287 77288 77289 77291 77292 77293 77297 77299 77315 77325 77411 77498 77478 77479 77487 77496 77380 77381 77382 77384 77389 77393
26580,"Huntington-Ashland, WV-KY-OH",Huntington,West Virginia,WV,54,Cabell,54011,38.4109,-82.4344,"Boyd County, Carter County, Greenup County, Lawrence County, Cabell County, Putnam County, Wayne County","21019, 21043, 21089, 39087, 54011, 54079, 54099",26580,25703 25702 25701 25705 25704 25706 25708 25709 25710 25711 25712 25713 25714 25716 25717 25718 25719 25720 25721 25722 25723 25724 25725 25726 25727 25728 25729 25755 25772 25773 25774 25775 25776 25777 25778 41102 41101 41114
26620,"Huntsville, AL",Huntsville,Alabama,AL,1,Madison,01089,34.6988,-86.6412,"Limestone County, Madison County","01083, 01089",26620,35801 35803 35802 35805 35806 35741 35824 35763 35757 35756 35810 35811 35816 35896 35762 35804 35807 35809 35814 35815 35893 35894 35895 35897 35899
26820,"Idaho Falls, ID",Idaho Falls,Idaho,ID,16,Bonneville,16019,43.4872,-112.0362,"Bonneville County, Butte County, Jefferson County","16019, 16023, 16051",26820,83401 83402 83404 83415
26900,"Indianapolis-Carmel-Anderson, IN",Indianapolis,Indiana,IN,18,Marion,18097,39.7771,-86.1458,"Boone County, Brown County, Hamilton County, Hancock County, Hendricks County, Johnson County, Madison County, Marion County, Morgan County, Putnam County, Shelby County","18011, 18013, 18057, 18059, 18063, 18081, 18095, 18097, 18109, 18133, 18145",26900,46016 46011 46012 46013 46014 46015 46018 46290 46032 46033 46280 46082 46085 46218 46219 46217 46214 46260 46268 46224 46228 46183 46231 46234 46235 46236 46237 46239 46250 46208 46201 46203 46202 46205 46204 46256 46254 46259 46227 46226 46225 46222 46221 46220 46229 46113 46278 46241 46240 46206 46207 46209 46230 46242 46244 46247 46251 46253 46255 46262 46277 46282 46283 46285 46288 46298
26980,"Iowa City, IA",Iowa City,Iowa,IA,19,Johnson,19103,41.6559,-91.5303,"Johnson County, Washington County","19103, 19183",26980,52245 52246 52240 52242 52243 52244
27060,"Ithaca, NY",Ithaca,New York,NY,36,Tompkins,36109,42.4442,-76.5032,Tompkins County,36109,27060,14853 14850 14851
27100,"Jackson, MI",Jackson,Michigan,MI,26,Jackson,26075,42.2431,-84.4037,Jackson County,26075,27100,49202 49201 49203
27140,"Jackson, MS",Jackson,Mississippi,MS,28,Hinds,28049,32.3163,-90.2124,"Copiah County, Hinds County, Holmes County, Madison County, Rankin County, Simpson County, Yazoo County","28029, 28049, 28051, 28089, 28121, 28127, 28163",27140,39272 39206 39204 39203 39202 39201 39209 39269 39174 39211 39212 39213 39216 39217 39060 39205 39207 39210 39215 39225 39236 39250 39271 39282 39283 39284 39286 39289 39296 39298
27180,"Jackson, TN",Jackson,Tennessee,TN,47,Madison,47113,35.6535,-88.8353,"Chester County, Crockett County, Gibson County, Madison County","47023, 47033, 47053, 47113",27180,38305 38301 38303 38314
27260,"Jacksonville, FL",Jacksonville,Florida,FL,12,Duval,12031,30.3322,-81.6749,"Baker County, Clay County, Duval County, Nassau County, St. Johns County","12003, 12019, 12031, 12089, 12109",27260,32224 32225 32226 32227 32220 32221 32222 32223 32228 32219 32218 32217 32216 32211 32210 32212 32246 32244 32233 32234 32209 32205 32202 32250 32254 32257 32256 32208 32206 32207 32258 32277 32204 32099 32201 32203 32214 32229 32231 32232 32235 32236 32238 32239 32241 32245 32247 32255
27340,"Jacksonville, NC",Jacksonville,North Carolina,NC,37,Onslow,37133,34.7288,-77.3941,Onslow County,37133,27340,28546 28547 28543 28540 28541 28542 28545
27500,"Janesville-Beloit, WI",Janesville,Wisconsin,WI,55,Rock,55105,42.6855,-89.0136,Rock County,55105,27500,53511 53512 53545 53546 53548 53547
27620,"Jefferson City, MO",Jefferson City,Missouri,MO,29,Cole,29051,38.5676,-92.1759,"Callaway County, Cole County, Moniteau County, Osage County","29027, 29051, 29135, 29151",27620,65101 65109 65102 65103 65104 65105 65106 65107 65108 65110 65111
27740,"Johnson City, TN",Johnson City,Tennessee,TN,47,Washington,47179,36.3406,-82.3803,"Carter County, Unicoi County, Washington County","47019, 47171, 47179",27740,37614 37615 37601 37604 37602 37605 37684
27780,"Johnstown, PA",Johnstown,Pennsylvania,PA,42,Cambria,42021,40.3258,-78.9193,Cambria County,42021,27780,15906 15905 15902 15901 15907
27860,"Jonesboro, AR",Jonesboro,Arkansas,AR,5,Craighead,05031,35.8212,-90.6791,"Craighead County, Poinsett County","05031, 05111",27860,72467 72404 72401 72402 72403 72405
27900,"Joplin, MO",Joplin,Missouri,MO,29,Jasper,29097,37.0758,-94.5018,"Jasper County, Newton County","29097, 29145",27900,64804 64801 64802 64803
27980,"Kahului-Wailuku-Lahaina, HI",Kahului,Hawaii,HI,15,Maui,15009,20.8715,-156.4603,Maui County,15009,27980,96732 96733 96761 96793
28020,"Kalamazoo-Portage, MI",Kalamazoo,Michigan,MI,26,Kalamazoo,26077,42.2749,-85.5882,Kalamazoo County,26077,28020,49001 49006 49007 49008 49074 49005 49019 49002 49024 49081
28100,"Kankakee, IL",Kankakee,Illinois,IL,17,Kankakee,17091,41.1019,-87.8643,Kankakee County,17091,28100,60901
28140,"Kansas City, MO-KS",Kansas City,Missouri,MO,29,Jackson,29095,39.1239,-94.5541,"Johnson County, Leavenworth County, Linn County, Miami County, Wyandotte County, Bates County, Caldwell County, Cass County, Clay County, Clinton County, Jackson County, Lafayette County, Platte County, Ray County","20091, 20103, 20107, 20121, 20209, 29013, 29025, 29037, 29047, 29049, 29095, 29107, 29165, 29177",28140,64161 64163 64165 64167 64053 64151 64153 64155 64154 64157 64156 64158 64108 64109 64102 64106 64105 64101 64128 64129 64124 64125 64126 64127 64120 64123 64164 64166 64192 64119 64118 64114 64117 64116 64111 64110 64113 64112 64132 64130 64146 64145 64149 64147 64139 64138 64133 64131 64137 64136 64134 64121 64141 64148 64162 64170 64171 64179 64180 64184 64187 64188 64191 64195 64196 64197 64198 64199 64999 66101 66102 66103 66104 66105 66106 66109 66115 66112 66111 66118 66110 66117 66119 66160 66214 66215 66216 66217 66219 66227 66220 66250 66214 66210 66211 66212 66213 66224 66221 66223 66209 66202 66207 66204 66062 66085 66201 66225 66276 66282 66283
28420,"Kennewick-Richland, WA",Kennewick,Washington,WA,53,Benton,53005,46.1978,-119.1732,"Benton County, Franklin County","53005, 53021",28420,99337 99336 99338 99352 99354
28660,"Killeen-Temple, TX",Killeen,Texas,TX,48,Bell,48027,31.0754,-97.7296,"Bell County, Coryell County, Lampasas County","48027, 48099, 48281",28660,76541 76543 76542 76549 76540 76547 76501 76502 76504 76508 76533
28700,"Kingsport-Bristol, TN-VA ",Kingsport,Tennessee,TN,47,Sullivan,47163,36.5224,-82.5453,"Hawkins County, Sullivan County, Scott County, Washington County, Bristol city","47073, 47163, 51169, 51191, 51520",28700,37620 37621 37660 37664 37663 37665 37662 37669
28740,"Kingston, NY",Kingston,New York,NY,36,Ulster,36111,41.9295,-73.9968,Ulster County,36111,28740,12401 12402
28940,"Knoxville, TN",Knoxville,Tennessee,TN,47,Knox,47093,35.9692,-83.9496,"Anderson County, Blount County, Campbell County, Knox County, Loudon County, Morgan County, Roane County, Union County","47001, 47009, 47013, 47093, 47105, 47129, 47145, 47173",28940,37918 37912 37909 37902 37924 37920 37921 37922 37923 37919 37915 37914 37917 37916 37901 37927 37928 37929 37939 37950 37995 37996 37997
29020,"Kokomo, IN",Kokomo,Indiana,IN,18,Howard,18067,40.464,-86.1277,Howard County,18067,29020,46902 46901 46903 46965
29100,"La Crosse-Onalaska, WI-MN",La Crosse,Wisconsin,WI,55,La Crosse,55063,43.824,-91.2268,"Houston County, La Crosse County","27055, 55063",29100,54601 54603 54602 54650
29180,"Lafayette, LA",Lafayette,Louisiana,LA,22,Lafayette,22055,30.2084,-92.0323,"Acadia Parish, Iberia Parish, Lafayette Parish, St. Martin Parish, Vermilion Parish","22001, 22045, 22055, 22099, 22113",29180,70508 70507 70506 70503 70501 70502 70504 70505 70509 70593 70596 70598
29200,"Lafayette-West Lafayette, IN",Lafayette,Indiana,IN,18,Tippecanoe,18157,40.399,-86.8594,"Benton County, Carroll County, Tippecanoe County, Warren County","18007, 18015, 18157, 18171",29200,47909 47905 47904 47901 47902 47903 47906 47907 47996
29340,"Lake Charles, LA",Lake Charles,Louisiana,LA,22,Calcasieu,22019,30.2012,-93.2122,"Calcasieu Parish, Cameron Parish","22019, 22023",29340,70605 70607 70601 70615 70602 70606 70609 70612 70616 70629
29420,"Lake Havasu City-Kingman, AZ",Lake Havasu City,Arizona,AZ,4,Mohave,04015,34.5006,-114.3113,Mohave County,4015,29420,86409 86401 86403 86406 86404 86405
29460,"Lakeland-Winter Haven, FL",Lakeland,Florida,FL,12,Polk,12105,28.0556,-81.9545,Polk County,12105,29460,33813 33803 33801 33805 33815 33811 33802 33804 33806 33881 33880 33884 33883 33885 33888
29540,"Lancaster, PA",Lancaster,Pennsylvania,PA,42,Lancaster,42071,40.0421,-76.3012,Lancaster County,42071,29540,17603 17602 17601 17608 17699
29620,"Lansing-East Lansing, MI",Lansing,Michigan,MI,26,Ingham,26065,42.7142,-84.5601,"Clinton County, Eaton County, Ingham County, Shiawassee County","26037, 26045, 26065, 26155",29620,48825 48823 48826 48933 48915 48912 48911 48910 48921 48906 48901 48909 48916 48919 48922 48924 48929 48930 48937 48951 48956
29700,"Laredo, TX",Laredo,Texas,TX,48,Webb,48479,27.5629,-99.4875,Webb County,48479,29700,78046 78045 78043 78040 78041 78042
29740,"Las Cruces, NM",Las Cruces,New Mexico,NM,35,Doa Ana,35013,32.3265,-106.7892,Doa Ana County,35013,29740,88012 88011 88005 88007 88001 88006 88013
29820,"Las Vegas-Henderson-Paradise, NV",Las Vegas,Nevada,NV,32,Clark,32003,36.2333,-115.2654,Clark County,32003,29820,89044 89052 89002 89074 89015 89014 89011 89012 89009 89077 89107 89106 89104 89102 89101 89108 89138 89130 89131 89134 89143 89146 89145 89144 89149 89124 89110 89117 89129 89128 88901 88905 89105 89114 89116 89125 89126 89127 89133 89136 89137 89140 89151 89152 89153 89155 89157 89158 89162 89163 89165 89173 89185 89195 89103 89102 89109 89183 89169 89118 89119 89121 89120 89123 89111 89132 89154 89159 89160 89170 89177 89193
29940,"Lawrence, KS",Lawrence,Kansas,KS,20,Douglas,20045,38.9597,-95.2641,Douglas County,20045,29940,66045 66044 66047 66046 66049
30020,"Lawton, OK",Lawton,Oklahoma,OK,40,Comanche,40031,34.6176,-98.4203,"Comanche County, Cotton County","40031, 40033",30020,73501 73507 73505 73503 73502 73506
30140,"Lebanon, PA",Lebanon,Pennsylvania,PA,42,Lebanon,42075,40.3412,-76.4227,Lebanon County,42075,30140,17046 17042
30300,"Lewiston, ID-WA",Lewiston,Idaho,ID,16,Nez Perce,16069,46.3934,-116.9934,"Nez Perce County, Asotin County","16069, 53003",30300,83501
30340,"Lewiston-Auburn, ME",Lewiston,Maine,ME,23,Androscoggin,23001,44.0915,-70.1681,Androscoggin County,23001,30340,04210 04211 04212 04223 04240 04241 04243
30460,"Lexington-Fayette, KY",Lexington,Kentucky,KY,21,Fayette,21067,38.0423,-84.4587,"Bourbon County, Clark County, Fayette County, Jessamine County, Scott County, Woodford County","21017, 21049, 21067, 21113, 21209, 21239",30460,40505 40506 40508 40509 40504 40507 40502 40503 40517 40516 40513 40511 40510 40515 40514 40512 40522 40523 40524 40526 40533 40536 40544 40546 40550 40555 40574 40575 40576 40577 40578 40579 40580 40581 40582 40583 40588 40591 40598
30620,"Lima, OH",Lima,Ohio,OH,39,Allen,39003,40.741,-84.1121,Allen County,39003,30620,45805 45801 45804
30700,"Lincoln, NE",Lincoln,Nebraska,NE,31,Lancaster,31109,40.809,-96.6788,"Lancaster County, Seward County","31109, 31159",30700,68528 68524 68526 68520 68521 68522 68516 68510 68512 68506 68507 68504 68505 68502 68503 68508 68509 68529 68542 68544 68583 68588
30780,"Little Rock-North Little Rock-Conway, AR",Little Rock,Arkansas,AR,5,Pulaski,05119,34.7256,-92.3576,"Faulkner County, Grant County, Lonoke County, Perry County, Pulaski County, Saline County","05045, 05053, 05085, 05105, 05119, 05125",30780,72032 72035 72034 72211 72210 72212 72223 72209 72202 72201 72206 72207 72204 72205 72103 72227 72215 72217 72219 72222 72225 72231 72255 72260 72295 72113 72116 72114 72118 72117 72115 72124 72190 72199 72214
30860,"Logan, UT-ID",Logan,Utah,UT,49,Cache,49005,41.74,-111.8419,"Franklin County, Cache County","16041, 49005",30860,84321 84341 84322
30980,"Longview, TX",Longview,Texas,TX,48,Gregg,48183,32.5193,-94.7621,"Gregg County, Harrison County, Rusk County, Upshur County","48183, 48203, 48401, 48459",30980,75602 75601 75605 75604 75606 75608 75615 75660
31020,"Longview, WA",Longview,Washington,WA,53,Cowlitz,53015,46.1461,-122.9629,Cowlitz County,53015,31020,98632
31080,"Los Angeles-Long Beach-Anaheim, CA",Los Angeles,California,CA,6,Los Angeles,06037,34.1139,-118.4068,"Orange County, Los Angeles County","06059, 06037",31080,92808 92806 92807 92804 92805 92802 92801 92803 92809 92812 92815 92816 92817 92825 92850 92899 91007 91006 91066 91077 91506 91504 91505 91502 91501 91503 91507 91508 91510 91521 91522 91523 91526 90248 90810 90747 90746 90745 90224 90749 90895 92626 92627 92628 92708 92728 90247 90249 91210 91214 91046 91201 91204 91208 91203 91202 91205 91207 91206 91020 91209 91221 91222 91225 91226 92617 92614 92612 92618 92620 92602 92603 92604 92606 92616 92619 92650 92697 92698 90822 90804 90805 90806 90807 90802 90803 90808 90831 90814 90813 90810 90815 90801 90832 90833 90840 90842 90844 90846 90847 90848 90853 90291 90293 90292 91316 91311 90037 90031 90008 90004 90005 90006 90007 90001 90002 90003 90710 90089 91344 91345 91340 91342 91343 90035 90034 90036 90033 90032 90039 90247 90248 91436 91371 91605 91604 91607 91601 91602 90402 90068 90069 90062 90063 90061 90066 90067 90064 90065 91326 91324 91325 90013 90012 90011 90010 90017 90016 90015 90014 90019 90090 90095 90094 91042 91040 91411 91352 91356 90041 90042 90043 90044 90045 90046 90047 90048 90049 90018 91423 90210 91303 91304 91306 91307 90079 90071 90077 90059 91608 91606 91331 91330 91335 90026 90027 90024 90025 90023 90020 90021 90028 90029 90272 90732 90731 90230 91406 91405 91403 91402 91401 91367 91364 90038 90057 90058 90744 90501 90502 90009 90030 90050 90051 90053 90054 90055 90060 90070 90072 90074 90075 90076 90078 90080 90081 90082 90083 90084 90086 90087 90088 90093 90099 90134 90189 90213 90294 90295 90296 90733 90734 90748 91041 91043 91305 91308 91309 91313 91327 91328 91329 91333 91334 91337 91346 91353 91357 91365 91392 91393 91394 91395 91396 91404 91407 91408 91409 91410 91412 91413 91416 91426 91470 91482 91495 91496 91499 91603 91609 91610 91611 91612 91614 91615 91616 91617 91618 92662 92663 92660 92661 92625 92657 92658 92659 92868 92869 92866 92867 92865 92856 92857 92863 92864 91101 91106 91107 91105 91103 91104 91102 91109 91110 91114 91115 91116 91117 91121 91123 91124 91125 91126 91129 91182 91184 91188 91189 92703 92701 92705 92704 92707 92706 92702 92712 92735 92799 90401 90402 90403 90404 90405 90406 90407 90408 90409 90410 90411 90277 90501 90503 90505 90504 90507 90508 90509 90510 92780 92782 92606 92623 92781
31140,"Louisville-Jefferson County, KY-IN",Louisville,Kentucky,KY,21,Jefferson,21111,38.1663,-85.6485,"Clark County, Floyd County, Harrison County, Washington County, Bullitt County, Henry County, Jefferson County, Oldham County, Shelby County, Spencer County","18019, 18043, 18061, 18175, 21029, 21103, 21111, 21185, 21211, 21215",31140,40177 40245 40241 40218 40219 40214 40216 40211 40213 40059 40291 40299 40220 40223 40222 40229 40228 40023 40272 40207 40209 40258 40118 40027 40225 40261 40268 40269 40281
31180,"Lubbock, TX",Lubbock,Texas,TX,48,Lubbock,48303,33.5659,-101.8878,"Crosby County, Lubbock County, Lynn County","48107, 48303, 48305",31180,79406 79423 79424 79416 79412 79413 79410 79411 79414 79404 79407 79401 79403 79415 79402 79408 79409 79430 79452 79453 79457 79464 79490 79491 79493 79499
31340,"Lynchburg, VA ",Lynchburg,Virginia,VA,51,Lynchburg,51680,37.4003,-79.1909,"Amherst County, Appomattox County, Bedford County, Campbell County, Lynchburg city","51009, 51011, 51019, 51031, 51680",31340,24504 24502 24503 24501 24505 24506 24513 24514
31420,"Macon-Bibb County, GA",Macon,Georgia,GA,13,Bibb,13021,32.8065,-83.6974,"Bibb County, Crawford County, Jones County, Monroe County, Twiggs County","13021, 13079, 13169, 13207, 13289",31420,31206 31052 31210 31211 31213 31216 31217 31207 31204 31201 31220 31202 31203 31205 31208 31209 31221 31294 31295 31296 31297
31460,"Madera, CA",Madera,California,CA,6,Madera,06039,36.9631,-120.0782,Madera County,6039,31460,93637 93638 93639
31540,"Madison, WI",Madison,Wisconsin,WI,55,Dane,55025,43.0826,-89.3931,"Columbia County, Dane County, Green County, Iowa County","55021, 55025, 55045, 55049",31540,53706 53704 53705 53703 53726 53792 53719 53718 53715 53714 53717 53716 53711 53713 53701 53707 53708 53725 53774 53777 53782 53783 53784 53785 53786 53788 53790 53793 53794
31700,"Manchester-Nashua, NH",Manchester,New Hampshire,NH,33,Hillsborough,33011,42.9848,-71.4447,Hillsborough County,33011,31700,03109 03104 03101 03103 03102 03105 03108 03111 03062 03063 03060 03064 03061
31740,"Manhattan, KS",Manhattan,Kansas,KS,20,Riley,20161,39.1886,-96.6046,"Geary County, Pottawatomie County, Riley County","20061, 20149, 20161",31740,66506 66502 66503 66505
31860,"Mankato, MN",Mankato,Minnesota,MN,27,Blue Earth,27013,44.1712,-93.9773,"Blue Earth County, Nicollet County","27013, 27103",31860,56001 56002
31900,"Mansfield, OH",Mansfield,Ohio,OH,39,Richland,39139,40.7656,-82.5275,Richland County,39139,31900,44905 44906 44907 44901 44902 44903
32580,"McAllen-Edinburg-Mission, TX",McAllen,Texas,TX,48,Hidalgo,48215,26.2273,-98.2471,Hidalgo County,48215,32580,78539 78542 78541 78540 78573 78504 78503 78501 78502 78505 78574 78572
32780,"Medford, OR",Medford,Oregon,OR,41,Jackson,41029,42.3372,-122.8537,Jackson County,41029,32780,97504 97501
32820,"Memphis, TN-MS-AR",Memphis,Tennessee,TN,47,Shelby,47157,35.1046,-89.9773,"Crittenden County, DeSoto County, Marshall County, Tate County, Tunica County, Fayette County, Shelby County, Tipton County","05035, 28033, 28093, 28137, 28143, 47047, 47157, 47167",32820,38120 38127 38107 38106 38105 38104 38103 38109 38108 38152 38132 38133 38131 38134 38141 38112 38111 38114 38115 38116 38117 38118 38119 38018 38016 38128 38122 38125 38126 37501 37544 38088 38101 38113 38124 38130 38136 38137 38145 38148 38150 38151 38157 38159 38161 38163 38166 38168 38173 38174 38175 38177 38181 38182 38184 38186 38187 38188 38190 38193 38194 38197
32900,"Merced, CA",Merced,California,CA,6,Merced,06047,37.3057,-120.4778,Merced County,6047,32900,95348 95340 95341 95343
33100,"Miami-Fort Lauderdale-Pompano Beach, FL",Miami,Florida,FL,12,Miami-Dade,12086,25.7839,-80.2102,"Broward County, Miami-Dade County, Palm Beach County","12011, 12086, 12099",33100,33496 33487 33486 33432 33433 33431 33434 33427 33429 33481 33499 33426 33436 33435 33474 33146 33143 33134 33158 33156 33114 33234 33442 33441 33064 33443 33445 33444 33483 33448 33482 33178 33172 33122 33166 33112 33191 33206 33301 33304 33305 33306 33308 33309 33334 33316 33315 33312 33311 33320 33336 33338 33339 33340 33346 33348 33394 33477 33458 33468 33173 33176 33156 33183 33116 33256 33283 33296 33129 33125 33126 33127 33128 33149 33144 33145 33142 33139 33138 33137 33136 33135 33134 33133 33132 33131 33130 33150 33101 33109 33111 33151 33222 33231 33233 33238 33255 33299 33140 33141 33139 33109 33119 33239 33418 33410 33412 33403 33069 33060 33062 33064 33061 33072 33074 33097 33322 33323 33326 33351 33313 33307 33345 33411 33412 33417 33409 33407 33405 33401 33402 33422
33140,"Michigan City-La Porte, IN",Michigan City,Indiana,IN,18,LaPorte,18091,41.7099,-86.8705,LaPorte County,18091,33140,46350 46352 46360 46361
33220,"Midland, MI",Midland,Michigan,MI,26,Midland,26111,43.6241,-84.2319,Midland County,26111,33220,48642 48640 48667 48670 48686
33260,"Midland, TX",Midland,Texas,TX,48,Midland,48329,32.0249,-102.1137,"Martin County, Midland County","48317, 48329",33260,79701 79706 79707 79705 79703 79702 79708 79711
33340,"Milwaukee-Waukesha, WI",Milwaukee,Wisconsin,WI,55,Milwaukee,55079,43.0642,-87.9673,"Milwaukee County, Ozaukee County, Washington County, Waukesha County","55079, 55089, 55131, 55133",33340,53203 53202 53207 53206 53205 53204 53209 53208 53233 53211 53218 53219 53214 53215 53216 53210 53212 53213 53295 53225 53224 53227 53226 53221 53220 53223 53222 53228 53201 53237 53259 53263 53274 53278 53288 53290 53293 53186 53188 53189 53187
33460,"Minneapolis-St. Paul-Bloomington, MN-WI",Minneapolis,Minnesota,MN,27,Hennepin,27053,44.9635,-93.2678,"Anoka County, Carver County, Chisago County, Dakota County, Hennepin County, Isanti County, Le Sueur County, Mille Lacs County, Ramsey County, Scott County, Sherburne County, Washington County, Wright County, Pierce County, St. Croix County","27003, 27019, 27025, 27037, 27053, 27059, 27079, 27095, 27123, 27139, 27141, 27163, 27171, 55093, 55109",33460,55425 55420 55431 55437 55438 55121 55122 55123 55344 55346 55347 55424 55436 55435 55439 55410 55403 55409 55408 55407 55406 55405 55404 55402 55401 55430 55454 55455 55418 55419 55410 55411 55412 55413 55414 55415 55416 55417 55440 55458 55459 55460 55467 55470 55472 55474 55478 55479 55480 55483 55484 55485 55486 55487 55488 55305 55345 55343 55391 55442 55441 55447 55446 55114 55117 55116 55119 55130 55101 55155 55102 55103 55106 55107 55104 55105 55108 55131 55133 55144 55145 55146 55164 55165 55170 55175
33540,"Missoula, MT",Missoula,Montana,MT,30,Missoula,30063,46.875,-114.0214,Missoula County,30063,33540,59808 59803 59802 59801 59812
33660,"Mobile, AL",Mobile,Alabama,AL,1,Mobile,01097,30.6783,-88.1162,"Mobile County, Washington County","01097, 01129",33660,36606 36607 36604 36605 36602 36603 36608 36609 36688 36582 36615 36617 36611 36610 36619 36618 36695 36693 36571 36601 36628 36633 36640 36641 36644 36652 36660 36670 36675 36689 36691
33700,"Modesto, CA",Modesto,California,CA,6,Stanislaus,06099,37.6374,-121.0028,Stanislaus County,6099,33700,95358 95356 95355 95354 95351 95350 95352 95353 95397
33740,"Monroe, LA",Monroe,Louisiana,LA,22,Ouachita,22073,32.5183,-92.0774,"Morehouse Parish, Ouachita Parish, Union Parish","22067, 22073, 22111",33740,71209 71203 71202 71201 71207 71210 71212 71213 71217
33780,"Monroe, MI",Monroe,Michigan,MI,26,Monroe,26115,41.9154,-83.385,Monroe County,26115,33780,48162 48161
33860,"Montgomery, AL",Montgomery,Alabama,AL,1,Montgomery,01101,32.3473,-86.2666,"Autauga County, Elmore County, Lowndes County, Montgomery County","01001, 01051, 01085, 01101",33860,36064 36112 36113 36110 36111 36117 36115 36116 36108 36105 36104 36106 36109 36107 36101 36114 36118 36120 36121 36123 36124 36125 36130 36131 36132 36135 36140 36141 36142 36177 36191
34060,"Morgantown, WV",Morgantown,West Virginia,WV,54,Monongalia,54061,39.638,-79.9468,"Monongalia County, Preston County","54061, 54077",34060,26501 26505 26504
34100,"Morristown, TN",Morristown,Tennessee,TN,47,Hamblen,47063,36.2046,-83.3006,"Grainger County, Hamblen County, Jefferson County","47057, 47063, 47089",34100,37813 37814 37815
34580,"Mount Vernon-Anacortes, WA",Mount Vernon,Washington,WA,53,Skagit,53057,48.4202,-122.3115,Skagit County,53057,34580,98221 98274 98273
34620,"Muncie, IN",Muncie,Indiana,IN,18,Delaware,18035,40.1989,-85.395,Delaware County,18035,34620,47306 47305 47303 47304 47302 47307
34740,"Muskegon, MI",Muskegon,Michigan,MI,26,Muskegon,26121,43.2281,-86.2563,Muskegon County,26121,34740,49442 49440 49441
34820,"Myrtle Beach-Conway-North Myrtle Beach, SC-NC",Myrtle Beach,South Carolina,SC,45,Horry,45051,33.7096,-78.8843,"Brunswick County, Horry County","37019, 45051",34820,29527 29526 29528 29572 29577 29578 29582 29568 29566 29597
34900,"Napa, CA",Napa,California,CA,6,Napa,06055,38.2976,-122.3011,Napa County,6055,34900,94558 94559 94581
34940,"Naples-Marco Island, FL",Naples,Florida,FL,12,Collier,12021,26.1504,-81.7936,Collier County,12021,34940,34145 34140 34146 34103 34102 34101 34105 34104 34106
34980,"Nashville-Davidson-Murfreesboro-Franklin, TN",Nashville,Tennessee,TN,47,Davidson,47037,36.1715,-86.7843,"Cannon County, Cheatham County, Davidson County, Dickson County, Macon County, Maury County, Robertson County, Rutherford County, Smith County, Sumner County, Trousdale County, Williamson County, Wilson County","47015, 47021, 47037, 47043, 47111, 47119, 47147, 47149, 47159, 47165, 47169, 47187, 47189",34980,37069 37064 37067 37065 37068 37132 37130 37129 37128 37127 37131 37133 37027 37138 37076 37072 37205 37201 37206 37240 37243 37246 37080 37218 37219 37216 37217 37214 37215 37212 37213 37210 37211 37189 37209 37208 37204 37207 37203 37115 37013 37228 37221 37220 37143 37011 37116 37202 37222 37224 37227 37229 37230 37232 37234 37235 37236 37238 37241 37242 37244 37250
35100,"New Bern, NC",New Bern,North Carolina,NC,37,Craven,37049,35.0955,-77.0723,"Craven County, Jones County, Pamlico County","37049, 37103, 37137",35100,28560 28562 28561
35300,"New Haven-Milford, CT",New Haven,Connecticut,CT,9,New Haven,09009,41.3112,-72.9246,New Haven County,9009,35300,06461 06460 06519 06511 06510 06513 06512 06515 06501 06502 06503 06505 06506 06507 06508 06509 06520 06521 06530 06531 06532 06533 06534 06535 06536 06540
35380,"New Orleans-Metairie, LA",New Orleans,Louisiana,LA,22,Orleans,22071,30.0687,-89.9288,"Jefferson Parish, Orleans Parish, Plaquemines Parish, St. Bernard Parish, St. Charles Parish, St. James Parish, St. John the Baptist Parish, St. Tammany Parish","22051, 22071, 22075, 22087, 22089, 22093, 22095, 22103",35380,70002 70003 70001 70006 70005 70004 70009 70010 70011 70033 70055 70139 70130 70131 70114 70115 70116 70117 70112 70113 70118 70119 70129 70128 70125 70124 70127 70126 70122 70163 70142 70145 70146 70148 70150 70151 70152 70153 70154 70156 70157 70158 70159 70160 70161 70162 70164 70165 70166 70167 70170 70172 70174 70175 70176 70177 70178 70179 70181 70182 70184 70185 70186 70187 70189 70190 70195
35620,"New York-Newark-Jersey City, NY-NJ-PA",New York,New York,NY,36,New York,36061,40.6943,-73.9249,"Nassau County, Suffolk County, Essex County, Hunterdon County, Morris County, Sussex County, Union County, Pike County, Middlesex County, Monmouth County, Ocean County, Somerset County, Bergen County, Hudson County, Passaic County, Bronx County, Kings County, New York County, Putnam County, Queens County, Richmond County, Rockland County, Westchester County","36059, 36103, 34013, 34019, 34027, 34037, 34039, 42103, 34023, 34025, 34029, 34035, 34003, 34017, 34031, 36005, 36047, 36061, 36079, 36081, 36085, 36087, 36119",35620,11229 11226 11225 11224 11222 11221 11220 11385 10169 10168 10167 10165 10162 10282 10280 10040 10044 11109 11104 11105 11379 11378 11377 11697 11694 11692 11693 11691 10271 10279 10278 10075 10302 10301 10452 11451 10475 10474 10471 10470 10473 10472 11228 11223 10103 11368 11369 11366 11367 11364 11365 11362 11363 11360 11361 10028 10029 10026 10027 10024 10025 10022 10023 10020 10021 11212 11213 11210 11211 11216 11217 11214 11215 11218 11219 10152 10153 10154 10307 10306 10305 11429 10310 10311 10312 10314 11432 11433 11430 11436 11434 11435 10453 10451 10457 10456 10455 10454 10459 10458 10128 10004 10005 10006 10007 10001 10002 10003 10009 11238 11239 11230 11231 11232 11233 11234 11235 11236 11237 11375 11374 11371 11370 11373 11372 10170 10171 10172 10173 10174 10177 11351 10039 10038 10035 10034 10037 10036 10031 10030 10033 10032 11201 11208 11203 11205 11204 11207 11206 11209 11411 11412 11413 11414 11415 11416 11417 11418 11419 11101 11102 11103 11106 11001 11005 11004 10065 10069 10199 10309 10308 10304 10303 11428 11421 11420 11423 11422 11425 11424 11427 11426 10466 10467 10464 10465 10462 10463 10460 10461 10468 10469 10119 10115 10112 10110 10111 11359 11358 11357 11356 11355 11354 10019 10018 10013 10012 10011 10010 10017 10016 10014 10008 10041 10043 10055 10060 10080 10081 10087 10090 10101 10102 10104 10105 10106 10107 10108 10109 10113 10114 10116 10117 10118 10120 10121 10122 10123 10124 10125 10126 10129 10130 10131 10132 10133 10138 10150 10151 10155 10156 10157 10158 10159 10160 10163 10164 10166 10175 10176 10178 10179 10185 10203 10211 10212 10213 10242 10249 10256 10258 10259 10260 10261 10265 10268 10269 10270 10272 10273 10274 10275 10276 10277 10281 10285 10286 10313 11120 11202 11241 11242 11243 11245 11247 11249 11251 11252 11256 11352 11380 11381 11386 11405 11431 11439 11499 11690 11695 10603 10601 10604 10605 10606 10602 07310 07311 07302 07307 07306 07305 07304 07097 07303 07308 07395 07399 07103 07102 07105 07104 07107 07106 07108 07112 07114 07101 07175 07188 07191 07192 07193 07195 07198 07199 08901 08875 08906 08933
35660,"Niles, MI",Niles,Michigan,MI,26,Berrien,26021,41.8346,-86.2473,Berrien County,26021,35660,49120
35840,"North Port-Sarasota-Bradenton, FL",North Port,Florida,FL,12,Sarasota,12115,27.0577,-82.1975,"Manatee County, Sarasota County","12081, 12115",35840,34208 34209 34205 34206 34281 34286 34287 34288 34289 34293 34291 34266 34223 34290 34232 34234 34237 34236 34239 34276 34285 34292 34275
35980,"Norwich-New London, CT",Norwich,Connecticut,CT,9,New London,09011,41.5495,-72.0882,New London County,9011,35980,06320 06380 06389 06360
36100,"Ocala, FL",Ocala,Florida,FL,12,Marion,12083,29.178,-82.1511,Marion County,12083,36100,34475 34474 34471 34470 32111 34477 34478 34483
36140,"Ocean City, NJ",Ocean City,New Jersey,NJ,34,Cape May,34009,39.2682,-74.6019,Cape May County,34009,36140,08226
36220,"Odessa, TX",Odessa,Texas,TX,48,Ector,48135,31.8831,-102.3406,Ector County,48135,36220,79761 79762 79763 79765 79768 79769
36260,"Ogden-Clearfield, UT",Ogden,Utah,UT,49,Weber,49057,41.2278,-111.9682,"Box Elder County, Davis County, Morgan County, Weber County","49003, 49011, 49029, 49057",36260,84015 84016 84089 84404 84401 84403 84244 84407 84408 84409 84415
36420,"Oklahoma City, OK",Oklahoma City,Oklahoma,OK,40,Oklahoma,40109,35.4676,-97.5136,"Canadian County, Cleveland County, Grady County, Lincoln County, Logan County, McClain County, Oklahoma County","40017, 40027, 40051, 40081, 40083, 40087, 40109",36420,73012 73013 73099 73097 73119 73118 73114 73117 73116 73111 73112 73020 73173 74857 73142 73141 73145 73149 73078 73109 73106 73107 73139 73132 73131 73135 73134 73008 73084 73105 73169 73162 73165 73102 73103 73054 73151 73150 73159 73064 73108 73104 73129 73179 73170 73049 73127 73120 73121 73122 73128 73101 73113 73124 73125 73126 73136 73137 73143 73144 73146 73147 73148 73152 73154 73155 73157 73163 73164 73167 73172 73178 73184 73189 73190 73194 73195
36500,"Olympia-Lacey-Tumwater, WA",Olympia,Washington,WA,53,Thurston,53067,47.0417,-122.8959,Thurston County,53067,36500,98503 98516 98509 98501 98502 98506 98504 98507 98508 98511 98501 98512
36540,"Omaha-Council Bluffs, NE-IA",Omaha,Nebraska,NE,31,Douglas,31055,41.2627,-96.0522,"Harrison County, Mills County, Pottawattamie County, Cass County, Douglas County, Sarpy County, Saunders County, Washington County","19085, 19129, 19155, 31025, 31055, 31153, 31155, 31177",36540,51503 51501 51502 68112 68117 68118 68107 68104 68105 68108 68178 68164 68122 68127 68124 68022 68111 68110 68114 68116 68137 68135 68132 68144 68134 68131 68130 68102 68106 68152 68154 68101 68103 68109 68119 68139 68145 68172 68175 68176 68179 68180 68182 68183 68197 68198
36740,"Orlando-Kissimmee-Sanford, FL",Orlando,Florida,FL,12,Orange,12095,28.4772,-81.3369,"Lake County, Orange County, Osceola County, Seminole County","12069, 12095, 12097, 12117",36740,34741 34743 34744 34746 34745 32829 32827 32824 32822 32804 32805 32806 32807 32801 32803 32808 32839 32835 32832 32819 32811 32814 32812 32802 32853 32854 32856 32861 32862 32872 32877 32885 32886 32891 32896 32897 32773 32771 32745 32772
36780,"Oshkosh-Neenah, WI",Oshkosh,Wisconsin,WI,55,Winnebago,55139,44.0228,-88.5619,Winnebago County,55139,36780,54956 54957 54985 54904 54901 54902 54903 54906
36980,"Owensboro, KY",Owensboro,Kentucky,KY,21,Daviess,21059,37.7574,-87.1173,"Daviess County, Hancock County, McLean County","21059, 21091, 21149",36980,42303 42301 42304
37100,"Oxnard-Thousand Oaks-Ventura, CA",Oxnard,California,CA,6,Ventura,06111,34.1963,-119.1815,Ventura County,6111,37100,93012 93010 93011 93035 93036 93030 93033 93031 93032 93034 93004 93001 93003 93002 93005 93006 93007 93009 91320 91360 91361 91362 91319 91358 91359
37340,"Palm Bay-Melbourne-Titusville, FL",Palm Bay,Florida,FL,12,Brevard,12009,27.955,-80.6627,Brevard County,12009,37340,32901 32903 32934 32935 32904 32912 32919 32941 32909 32905 32907 32976 32948 32908 32902 32906 32910 32911 32796 32780 32781
37460,"Panama City, FL",Panama City,Florida,FL,12,Bay,12005,30.1995,-85.6004,Bay County,12005,37460,32401 32405 32404 32402 32412
37620,"Parkersburg-Vienna, WV",Parkersburg,West Virginia,WV,54,Wood,54107,39.2624,-81.542,"Wirt County, Wood County","54105, 54107",37620,26104 26101 26103 26105
37860,"Pensacola-Ferry Pass-Brent, FL",Pensacola,Florida,FL,12,Escambia,12033,30.4427,-87.1886,"Escambia County, Santa Rosa County","12033, 12113",37860,32505 32503 32520 32504 32514 32512 32501 32504 32503 32502 32513 32522 32524 32591
37900,"Peoria, IL",Peoria,Illinois,IL,17,Peoria,17143,40.752,-89.6153,"Fulton County, Marshall County, Peoria County, Stark County, Tazewell County, Woodford County","17057, 17123, 17143, 17175, 17179, 17203",37900,61625 61606 61615 61614 61605 61602 61603 61604 61601 61613 61629 61630 61634 61636 61637 61638 61639 61643 61651 61652 61653 61654 61655 61656
37980,"Philadelphia-Camden-Wilmington, PA-NJ-DE-MD",Philadelphia,Pennsylvania,PA,42,Philadelphia,42101,40.0077,-75.1339,"Burlington County, Camden County, Gloucester County, Bucks County, Chester County, Montgomery County, Delaware County, Philadelphia County, New Castle County, Cecil County, Salem County","34005, 34007, 34015, 42017, 42029, 42091, 42045, 42101, 10003, 24015, 34033",37980,19154 19151 19150 19153 19152 19102 19103 19106 19107 19104 19109 19128 19129 19120 19121 19122 19123 19124 19125 19126 19127 19112 19111 19115 19114 19116 19119 19118 19148 19149 19146 19147 19144 19145 19142 19143 19140 19141 19139 19138 19137 19136 19135 19134 19133 19132 19131 19130 19019 19092 19093 19099 19101 19105 19108 19110 19155 19160 19161 19162 19170 19171 19172 19173 19175 19176 19177 19178 19179 19181 19182 19183 19184 19185 19187 19188 19190 19191 19192 19193 19194 19195 19196 19197 19244 19255 08104 08105 08102 08103 08101 19809 19802 19801 19806 19805 19850 19880 19884 19885 19886 19890 19893 19894 19895 19896 19898 19899
38060,"Phoenix-Mesa-Chandler, AZ",Phoenix,Arizona,AZ,4,Maricopa,04013,33.5722,-112.0891,"Maricopa County, Pinal County","04013, 04021",38060,85194 85193 85122 85130 85248 85249 85226 85224 85225 85286 85246 85208 85209 85201 85202 85203 85204 85205 85206 85207 85215 85213 85212 85210 85211 85214 85216 85274 85275 85277 85008 85009 85006 85007 85004 85083 85086 85087 85085 85383 85033 85304 85306 85308 85020 85021 85022 85023 85024 85027 85028 85029 85353 85019 85018 85013 85012 85015 85014 85017 85016 85254 85003 85044 85045 85042 85043 85040 85041 85048 85054 85037 85035 85034 85032 85031 85307 85310 85051 85050 85053 85001 85002 85005 85010 85011 85026 85030 85036 85038 85046 85060 85061 85062 85063 85064 85065 85066 85067 85068 85069 85070 85071 85072 85073 85074 85075 85076 85078 85079 85080 85082 85259 85258 85251 85250 85257 85255 85254 85266 85262 85260 85252 85261 85267 85271 85281 85282 85283 85284 85280 85285 85287
38220,"Pine Bluff, AR",Pine Bluff,Arkansas,AR,5,Jefferson,05069,34.2116,-92.0178,"Cleveland County, Jefferson County, Lincoln County","05025, 05069, 05079",38220,71602 71601 71603 71611 71612
38300,"Pittsburgh, PA",Pittsburgh,Pennsylvania,PA,42,Allegheny,42003,40.4396,-79.9762,"Allegheny County, Armstrong County, Beaver County, Butler County, Fayette County, Washington County, Westmoreland County","42003, 42005, 42007, 42019, 42051, 42125, 42129",38300,15216 15217 15214 15212 15213 15210 15211 15218 15219 15290 15232 15233 15260 15205 15204 15207 15206 15201 15203 15208 15224 15234 15222 15221 15220 15226 15120 15230 15240 15250 15251 15252 15253 15254 15255 15257 15258 15259 15261 15262 15264 15265 15267 15270 15272 15274 15279 15281 15282 15286 15289 15295
38340,"Pittsfield, MA",Pittsfield,Massachusetts,MA,25,Berkshire,25003,42.4517,-73.2605,Berkshire County,25003,38340,01201 01202 01203
38540,"Pocatello, ID",Pocatello,Idaho,ID,16,Bannock,16005,42.8724,-112.4646,"Bannock County, Power County","16005, 16077",38540,83204 83201 83209 83205 83206
38860,"Portland-South Portland, ME",Portland,Maine,ME,23,Cumberland,23005,43.6773,-70.2715,"Cumberland County, Sagadahoc County, York County","23005, 23023, 23031",38860,04101 04102 04103 04108 04019 04109 04104 04112 04116 04122 04123 04124 04106
38900,"Portland-Vancouver-Hillsboro, OR-WA",Portland,Oregon,OR,41,Multnomah,41051,45.5372,-122.65,"Clackamas County, Columbia County, Multnomah County, Washington County, Yamhill County, Clark County, Skamania County","41005, 41009, 41051, 41067, 41071, 53011, 53059",38900,97225 97005 97007 97006 97008 97075 97076 97077 97079 97006 97123 97124 97129 97227 97221 97220 97229 97203 97202 97201 97206 97205 97204 97209 97208 97266 97218 97236 97232 97233 97230 97239 97219 97214 97215 97216 97217 97210 97211 97212 97213 97207 97228 97238 97240 97242 97250 97251 97252 97253 97254 97256 97258 97280 97282 97283 97286 97290 97291 97292 97293 97294 97224 97223 97281 98684 98664 98665 98660 98661 98662 98663 98682 98683 98687
38940,"Port St. Lucie, FL",Port St. Lucie,Florida,FL,12,St. Lucie,12111,27.2796,-80.3883,"Martin County, St. Lucie County","12085, 12111",38940,34986 34984 34983 34987 34952 34953 34985
39100,"Poughkeepsie-Newburgh-Middletown, NY",Poughkeepsie,New York,NY,36,Dutchess,36027,41.6949,-73.921,"Dutchess County, Orange County","36027, 36071",39100,10940 12601 12603 12602 10917 10926 10930 11797
39150,"Prescott Valley-Prescott, AZ",Prescott Valley,Arizona,AZ,4,Yavapai,04025,34.5983,-112.3176,Yavapai County,4025,39150,86305 86301 86303 86313 86302 86304 86327 86315 86314 86312
39300,"Providence-Warwick, RI-MA",Providence,Rhode Island,RI,44,Providence,44007,41.823,-71.4187,"Bristol County, Bristol County, Kent County, Newport County, Providence County, Washington County","25005, 44001, 44003, 44005, 44007, 44009",39300,02903 02906 02907 02905 02908 02909 02904 02912 02901 02902 02918 02940 02818 02886 02889 02888 02887
39340,"Provo-Orem, UT",Provo,Utah,UT,49,Utah,49049,40.2457,-111.6457,"Juab County, Utah County","49023, 49049",39340,84097 84057 84058 84059 84604 84606 84601 84602 84603 84605
39380,"Pueblo, CO",Pueblo,Colorado,CO,8,Pueblo,08101,38.2705,-104.6112,Pueblo County,8101,39380,81004 81005 81003 81001 81008 81002 81010 81011 81012
39460,"Punta Gorda, FL",Punta Gorda,Florida,FL,12,Charlotte,12015,26.8933,-82.0516,Charlotte County,12015,39460,33950
39540,"Racine, WI",Racine,Wisconsin,WI,55,Racine,55101,42.7274,-87.8135,Racine County,55101,39540,53405 53404 53406 53403 53402 53401 53407 53408
39580,"Raleigh-Cary, NC",Raleigh,North Carolina,NC,37,Wake,37183,35.8325,-78.6435,"Franklin County, Johnston County, Wake County","37069, 37101, 37183",39580,27560 27511 27518 27519 27513 27512 27617 27616 27615 27614 27613 27612 27610 27608 27609 27601 27603 27604 27605 27606 27607 27602 27619 27620 27621 27622 27624 27626 27627 27628 27634 27636 27640 27650 27656 27658 27661 27668 27675 27676 27690 27697 27698
39660,"Rapid City, SD",Rapid City,South Dakota,SD,46,Pennington,46103,44.0716,-103.2204,"Meade County, Pennington County","46093, 46103",39660,57702 57703 57701
39740,"Reading, PA",Reading,Pennsylvania,PA,42,Berks,42011,40.34,-75.9267,Berks County,42011,39740,19604 19601 19602 19611 19603 19612
39820,"Redding, CA",Redding,California,CA,6,Shasta,06089,40.5698,-122.365,Shasta County,6089,39820,96002 96003 96001
39900,"Reno, NV",Reno,Nevada,NV,32,Washoe,32031,39.5497,-119.8483,"Storey County, Washoe County","32029, 32031",39900,89521 89523 89439 89503 89502 89501 89506 89509 89508 89519 89512 89505 89507 89533 89555 89557 89595 89599
40060,"Richmond, VA ",Richmond,Virginia,VA,51,Richmond,51760,37.5295,-77.4756,"Amelia County, Charles City County, Chesterfield County, Dinwiddie County, Goochland County, Hanover County, Henrico County, King and Queen County, King William County, New Kent County, Powhatan County, Prince George County, Sussex County, Colonial Heights city, Hopewell city, Petersburg city, Richmond city","51007, 51036, 51041, 51053, 51075, 51085, 51087, 51097, 51101, 51127, 51145, 51149, 51183, 51570, 51670, 51730, 51760",40060,23222 23223 23220 23221 23226 23227 23224 23225 23230 23235 23234 23219 23173 23218 23232 23249 23260 23261 23269 23274 23276 23278 23282 23284 23285 23286 23289 23290 23291 23292 23295 23298
40140,"Riverside-San Bernardino-Ontario, CA",Riverside,California,CA,6,Riverside,06065,33.9381,-117.3948,"Riverside County, San Bernardino County","06065, 06071",40140,91710 91708 92882 92880 92881 92879 92877 92878 91762 91761 91764 91743 91758 92260 92211 92255 92373 92374 92346 92375 92508 92503 92501 92505 92504 92507 92506 92502 92513 92514 92516 92517 92521 92522 92401 92407 92405 92408 92404 92411 92410 92346 92369 92403 92406 92413 92415 92418 92423 92427 92590 92591 92592 92589 92593
40220,"Roanoke, VA ",Roanoke,Virginia,VA,51,Roanoke,51770,37.2785,-79.958,"Botetourt County, Craig County, Franklin County, Roanoke County, Roanoke city, Salem city","51023, 51045, 51067, 51161, 51770, 51775",40220,24014 24015 24016 24017 24011 24012 24013 24001 24002 24003 24004 24005 24006 24007 24008 24009 24010 24022 24023 24024 24025 24026 24027 24028 24029 24030 24031 24032 24033 24034 24035 24036 24037 24038 24040 24042 24043
40340,"Rochester, MN",Rochester,Minnesota,MN,27,Olmsted,27109,44.0151,-92.4778,"Dodge County, Fillmore County, Olmsted County, Wabasha County","27039, 27045, 27109, 27157",40340,55902 55901 55906 55904 55905
40380,"Rochester, NY",Rochester,New York,NY,36,Monroe,36055,43.168,-77.6162,"Livingston County, Monroe County, Ontario County, Orleans County, Wayne County, Yates County","36051, 36055, 36069, 36073, 36117, 36123",40380,14608 14609 14606 14604 14605 14607 14627 14620 14621 14619 14615 14614 14617 14611 14610 14613 14612 14602 14603 14638 14639 14642 14643 14644 14646 14647 14649 14650 14651 14653
40420,"Rockford, IL",Rockford,Illinois,IL,17,Winnebago,17201,42.2597,-89.0641,"Boone County, Winnebago County","17007, 17201",40420,61114 61109 61108 61104 61107 61101 61103 61102 61105 61106 61110 61125 61126
40580,"Rocky Mount, NC",Rocky Mount,North Carolina,NC,37,Nash,37127,35.9676,-77.8048,"Edgecombe County, Nash County","37065, 37127",40580,27804 27803 27801 27815
40660,"Rome, GA",Rome,Georgia,GA,13,Floyd,13115,34.2661,-85.1862,Floyd County,13115,40660,30161 30165 30162
40900,"Sacramento-Roseville-Folsom, CA",Sacramento,California,CA,6,Sacramento,06067,38.5667,-121.4683,"El Dorado County, Placer County, Sacramento County, Yolo County","06017, 06061, 06067, 06113",40900,95630 95671 95763 95742 95670 95827 95741 95661 95747 95678 95820 95838 95832 95833 95831 95834 95835 95811 95814 95815 95816 95818 95819 95828 95821 95823 95822 95825 95824 95826 95817 94203 94204 94205 94207 94208 94209 94211 94229 94230 94232 94234 94235 94236 94237 94239 94240 94244 94245 94247 94248 94249 94250 94252 94254 94256 94257 94258 94259 94261 94262 94263 94267 94268 94269 94271 94273 94274 94277 94278 94279 94280 94282 94283 94284 94285 94287 94288 94289 94290 94291 94293 94294 94295 94296 94297 94298 94299 95812 95813 95840 95851 95852 95853 95867 95894 95605 95691 95798 95799 95899
40980,"Saginaw, MI",Saginaw,Michigan,MI,26,Saginaw,26145,43.4199,-83.9501,Saginaw County,26145,40980,48607 48602 48601 48606 48663
41060,"St. Cloud, MN",St. Cloud,Minnesota,MN,27,Stearns,27145,45.5339,-94.1718,"Benton County, Stearns County","27009, 27145",41060,56304 56301 56303 56302 56372 56393 56395 56396
41100,"St. George, UT",St. George,Utah,UT,49,Washington,49053,37.077,-113.577,Washington County,49053,41100,84770 84790 84791
41140,"St. Joseph, MO-KS",St. Joseph,Missouri,MO,29,Buchanan,29021,39.7599,-94.821,"Doniphan County, Andrew County, Buchanan County, DeKalb County","20043, 29003, 29021, 29063",41140,64503 64501 64507 64504 64506 64505 64502 64508
41180,"St. Louis, MO-IL",St. Louis,Missouri,MO,29,St. Louis,29510,38.6358,-90.2451,"Bond County, Calhoun County, Clinton County, Jersey County, Macoupin County, Madison County, Monroe County, St. Clair County, Franklin County, Jefferson County, Lincoln County, St. Charles County, St. Louis County, Warren County, St. Louis city","17005, 17013, 17027, 17083, 17117, 17119, 17133, 17163, 29071, 29099, 29113, 29183, 29189, 29219, 29510",41180,63301 63303 63302 63110 63111 63112 63113 63115 63116 63118 63120 63139 63107 63106 63104 63103 63102 63101 63109 63108 63155 63137 63143 63147 63150 63156 63157 63158 63160 63163 63164 63166 63169 63177 63178 63179 63180 63188 63197
41420,"Salem, OR",Salem,Oregon,OR,41,Marion,41047,44.9231,-123.0246,"Marion County, Polk County","41047, 41053",41420,97302 97301 97306 97304 97317 97309 97310 97311 97312 97314
41500,"Salinas, CA",Salinas,California,CA,6,Monterey,06053,36.6884,-121.6317,Monterey County,6053,41500,93901 93905 93906 93902 93915
41540,"Salisbury, MD-DE",Salisbury,Maryland,MD,24,Wicomico,24045,38.3756,-75.5867,"Sussex County, Somerset County, Wicomico County, Worcester County","10005, 24039, 24045, 24047",41540,21802 21804 21801
41620,"Salt Lake City, UT",Salt Lake City,Utah,UT,49,Salt Lake,49035,40.7777,-111.9306,"Salt Lake County, Tooele County","49035, 49045",41620,84116 84115 84113 84112 84111 84144 84128 84180 84108 84101 84102 84103 84104 84105 84106 84110 84114 84122 84132 84133 84134 84138 84139 84143 84145 84147 84148 84150 84151 84152 84158 84199
41660,"San Angelo, TX",San Angelo,Texas,TX,48,Tom Green,48451,31.4424,-100.4506,"Irion County, Sterling County, Tom Green County","48235, 48431, 48451",41660,76905 76904 76901 76903 76908 76886 76902 76906 76909
41700,"San Antonio-New Braunfels, TX",San Antonio,Texas,TX,48,Bexar,48029,29.4658,-98.5253,"Atascosa County, Bandera County, Bexar County, Comal County, Guadalupe County, Kendall County, Medina County, Wilson County","48013, 48019, 48029, 48091, 48187, 48259, 48325, 48493",41700,78132 78130 78131 78135 78112 78259 78258 78252 78251 78250 78257 78256 78255 78254 78208 78201 78202 78203 78204 78205 78207 78245 78231 78230 78233 78232 78235 78234 78237 78239 78238 78209 78109 78266 78260 78219 78218 78217 78216 78215 78214 78213 78212 78211 78210 78244 78247 78240 78242 78248 78249 78073 78023 78222 78223 78220 78221 78226 78227 78224 78225 78228 78229 78206 78241 78246 78265 78268 78269 78270 78278 78279 78280 78283 78284 78285 78288 78289 78291 78292 78293 78294 78295 78296 78297 78298 78299
41740,"San Diego-Chula Vista-Carlsbad, CA",San Diego,California,CA,6,San Diego,06073,32.8312,-117.1225,San Diego County,6073,41740,92008 92009 92011 92010 92013 92018 91911 91910 91913 91915 91914 91902 91908 91909 91912 91921 92064 92074 92109 92108 92103 92111 92154 92110 92115 92140 92107 92106 92105 92104 92102 92071 92132 92130 92131 92134 92139 92025 92027 92147 92145 92014 92119 92117 92121 92120 92123 92122 92124 92127 92126 92129 92128 92101 92037 92173 92113 92114 92116 92038 92039 92072 92092 92093 92112 92137 92138 92142 92143 92149 92150 92152 92153 92158 92159 92160 92161 92163 92165 92166 92167 92168 92169 92170 92171 92172 92174 92175 92176 92177 92179 92182 92186 92187 92191 92192 92193 92195 92196 92197 92198 92199
41860,"San Francisco-Oakland-Berkeley, CA",San Francisco,California,CA,6,San Francisco,06075,37.7562,-122.443,"Alameda County, Contra Costa County, San Francisco County, San Mateo County, Marin County","06001, 06013, 06075, 06081, 06041",41860,94708 94707 94705 94704 94703 94702 94709 94710 94720 94701 94712 94550 94551 94621 94705 94704 94611 94610 94613 94619 94612 94618 94606 94607 94602 94603 94601 94609 94605 94608 94604 94614 94615 94617 94620 94622 94623 94624 94649 94659 94660 94661 94666 94566 94588 94065 94062 94063 94061 94130 94131 94132 94133 94134 94109 94108 94103 94102 94105 94104 94158 94127 94124 94123 94122 94121 94129 94118 94110 94112 94116 94117 94114 94115 94111 94107 94119 94120 94125 94126 94137 94139 94140 94141 94142 94143 94144 94145 94146 94147 94151 94159 94160 94161 94163 94164 94172 94177 94188 94404 94401 94402 94403 94497 94901 94903 94915 94582 94583 94080 94128 94083 94596 94597 94595 94598
41940,"San Jose-Sunnyvale-Santa Clara, CA",San Jose,California,CA,6,Santa Clara,06085,37.3019,-121.8486,"San Benito County, Santa Clara County","06069, 06085",41940,95014 95015 95108 95170 95035 94040 94041 94043 94039 94042 94022 95033 94303 94301 94306 94304 94302 95118 95128 95124 95125 95123 95008 95002 95117 95116 95111 95110 95113 95112 95119 95126 95127 95120 95121 95148 95133 95132 95131 95130 95136 95135 95134 95139 95138 95037 95013 95129 95122 95101 95103 95106 95109 95115 95141 95150 95151 95153 95154 95155 95156 95157 95158 95159 95160 95161 95164 95172 95173 95190 95191 95192 95193 95194 95196 95054 95050 95051 95053 95052 95055 95056 95002 94089 94085 94086 94087 94088
42020,"San Luis Obispo-Paso Robles, CA",San Luis Obispo,California,CA,6,San Luis Obispo,06079,35.2669,-120.6691,San Luis Obispo County,6079,42020,93446 93447 93401 93405 93403 93406
42100,"Santa Cruz-Watsonville, CA",Santa Cruz,California,CA,6,Santa Cruz,06087,36.9789,-122.0346,Santa Cruz County,6087,42100,95065 95064 95060 95062 95061 95063 95067 95076 95019 95077
42140,"Santa Fe, NM",Santa Fe,New Mexico,NM,35,Santa Fe,35049,35.6619,-105.9819,Santa Fe County,35049,42140,87505 87507 87501 87502 87503 87509
42200,"Santa Maria-Santa Barbara, CA",Santa Maria,California,CA,6,Santa Barbara,06083,34.9334,-120.4432,Santa Barbara County,6083,42200,93105 93101 93103 93109 93102 93106 93120 93121 93130 93140 93190 93454 93455 93458
42220,"Santa Rosa-Petaluma, CA",Santa Rosa,California,CA,6,Sonoma,06097,38.4458,-122.7067,Sonoma County,6097,42220,94954 94952 94953 95404 95409 95403 95401 95407 95405 95406
42340,"Savannah, GA",Savannah,Georgia,GA,13,Chatham,13051,32.0281,-81.1784,"Bryan County, Chatham County, Effingham County","13029, 13051, 13103",42340,31322 31409 31408 31401 31405 31404 31407 31406 31419 31415 31403 31412 31416 31418 31420 31421
42540,"Scranton-Wilkes-Barre, PA",Scranton,Pennsylvania,PA,42,Lackawanna,42069,41.4044,-75.6649,"Lackawanna County, Luzerne County, Wyoming County","42069, 42079, 42131",42540,18509 18508 18510 18503 18505 18507 18504 18515 18540 18702 18701 18705 18703 18710 18711 18762 18765 18766 18767 18769 18773
42660,"Seattle-Tacoma-Bellevue, WA",Seattle,Washington,WA,53,King,53033,47.6211,-122.3244,"King County, Snohomish County, Pierce County","53033, 53061, 53053",42660,98001 98002 98092 98004 98005 98006 98007 98008 98009 98015 98207 98204 98205 98203 98201 98208 98275 98206 98213 98031 98030 98032 98042 98035 98064 98089 98499 98498 98496 98497 98052 98073 98059 98058 98057 98056 98055 98109 98108 98104 98107 98106 98101 98103 98102 98105 98154 98122 98121 98126 98125 98178 98174 98177 98144 98146 98195 98199 98118 98119 98116 98117 98115 98112 98164 98134 98136 98133 98111 98113 98114 98124 98127 98129 98139 98141 98145 98161 98165 98170 98175 98181 98185 98191 98194 98422 98421 98402 98403 98404 98405 98408 98409 98406 98407 98465 98416 98418 98444 98401 98411 98412 98413 98415 98417 98419 98471 98481 98490
42680,"Sebastian-Vero Beach, FL",Sebastian,Florida,FL,12,Indian River,12061,27.7882,-80.4813,Indian River County,12061,42680,32958 32978 32960 32963 32961 32964 32965 32969
42700,"Sebring-Avon Park, FL",Sebring,Florida,FL,12,Highlands,12055,27.477,-81.453,Highlands County,12055,42700,33825 33826 33870 33875 33871
43100,"Sheboygan, WI",Sheboygan,Wisconsin,WI,55,Sheboygan,55117,43.7403,-87.7316,Sheboygan County,55117,43100,53083 53081
43300,"Sherman-Denison, TX",Sherman,Texas,TX,48,Grayson,48181,33.6274,-96.6218,Grayson County,48181,43300,75020 75092 75090 75091
43340,"Shreveport-Bossier City, LA",Shreveport,Louisiana,LA,22,Caddo,22017,32.4656,-93.7956,"Bossier Parish, Caddo Parish, De Soto Parish","22015, 22017, 22031",43340,71112 71111 71110 71113 71171 71172 71129 71101 71103 71104 71105 71106 71107 71108 71109 71119 71118 71102 71120 71130 71133 71134 71135 71136 71138 71148 71149 71150 71151 71152 71153 71154 71156 71161 71162 71163 71164 71165 71166
43420,"Sierra Vista-Douglas, AZ",Sierra Vista,Arizona,AZ,4,Cochise,04003,31.563,-110.3153,Cochise County,4003,43420,85608 85607 85655 85650 85635 85613 85670 85671
43580,"Sioux City, IA-NE-SD",Sioux City,Iowa,IA,19,Woodbury,19193,42.4959,-96.3901,"Woodbury County, Dakota County, Dixon County, Union County","19193, 31043, 31051, 46127",43580,51106 51104 51105 51103 51101 51108 51109 51111
43620,"Sioux Falls, SD",Sioux Falls,South Dakota,SD,46,Minnehaha,46099,43.5397,-96.732,"Lincoln County, McCook County, Minnehaha County, Turner County","46083, 46087, 46099, 46125",43620,57110 57104 57105 57106 57107 57103 57108 57197 57117 57101 57109 57186 57193
43780,"South Bend-Mishawaka, IN-MI",South Bend,Indiana,IN,18,St. Joseph,18141,41.6767,-86.2696,"St. Joseph County, Cass County","18141, 26027",43780,46544 46545 46546 46601 46635 46628 46616 46614 46615 46613 46619 46617 46624 46626 46634 46660 46680 46699
43900,"Spartanburg, SC",Spartanburg,South Carolina,SC,45,Spartanburg,45083,34.9437,-81.9257,Spartanburg County,45083,43900,29302 29301 29307 29306 29304 29319
44060,"Spokane-Spokane Valley, WA",Spokane,Washington,WA,53,Spokane,53063,47.6671,-117.433,"Spokane County, Stevens County","53063, 53065",44060,99201 99203 99202 99205 99204 99207 99208 99224 99223 99001 99212 99209 99210 99219 99220 99252 99256 99258 99260 99206 99016 99212 99216 99037 99211 99213 99215
44100,"Springfield, IL",Springfield,Illinois,IL,17,Sangamon,17167,39.771,-89.6538,"Menard County, Sangamon County","17129, 17167",44100,62711 62712 62702 62703 62701 62707 62704 62705 62706 62715 62716 62719 62722 62726 62736 62739 62756 62757 62761 62762 62763 62764 62765 62766 62767 62769 62776 62777 62781 62786 62796
44140,"Springfield, MA",Springfield,Massachusetts,MA,25,Hampden,25013,42.1155,-72.5395,"Franklin County, Hampden County, Hampshire County","25011, 25013, 25015",44140,01151 01118 01119 01199 01129 01128 01107 01105 01104 01103 01109 01108 01101 01102 01111 01115 01138 01139 01144 01152
44180,"Springfield, MO",Springfield,Missouri,MO,29,Greene,29077,37.1943,-93.2916,"Christian County, Dallas County, Greene County, Polk County, Webster County","29043, 29059, 29077, 29167, 29225",44180,65810 65802 65803 65804 65806 65807 65809 65805 65808 65814 65817 65890 65897 65898 65899
44220,"Springfield, OH",Springfield,Ohio,OH,39,Clark,39023,39.9297,-83.7957,Clark County,39023,44220,45503 45506 45505 45504
44300,"State College, PA",State College,Pennsylvania,PA,42,Centre,42027,40.7909,-77.8568,Centre County,42027,44300,16802 16803 16801 16804 16805
44420,"Staunton, VA",Staunton,Virginia,VA,51,Staunton,51790,38.1593,-79.0611,"Augusta County, Staunton city, Waynesboro city","51015, 51790, 51820",44420,24401 24402
44700,"Stockton, CA",Stockton,California,CA,6,San Joaquin,06077,37.9765,-121.3109,San Joaquin County,6077,44700,95219 95212 95210 95211 95209 95205 95207 95202 95204 95206 95203 95201 95214 95267 95269 95296 95297
44940,"Sumter, SC",Sumter,South Carolina,SC,45,Sumter,45085,33.9392,-80.393,"Clarendon County, Sumter County","45027, 45085",44940,29154 29152 29153 29150 29151
45060,"Syracuse, NY",Syracuse,New York,NY,36,Onondaga,36067,43.0409,-76.1438,"Madison County, Onondaga County, Oswego County","36053, 36067, 36075",45060,13210 13214 13290 13224 13207 13206 13205 13204 13203 13202 13208 13201 13217 13218 13221 13235 13244 13252 13261
45220,"Tallahassee, FL",Tallahassee,Florida,FL,12,Leon,12073,30.4551,-84.2526,"Gadsden County, Jefferson County, Leon County, Wakulla County","12039, 12065, 12073, 12129",45220,32311 32312 32399 32304 32303 32301 32309 32308 32302 32306 32307 32313 32314 32315 32316 32318
45300,"Tampa-St. Petersburg-Clearwater, FL",Tampa,Florida,FL,12,Hillsborough,12057,27.9942,-82.4451,"Hernando County, Hillsborough County, Pasco County, Pinellas County","12053, 12057, 12101, 12103",45300,33755 33759 33756 33763 33761 33767 33764 33765 33757 33758 33766 33769 33756 33771 33760 33764 33770 33773 33778 33774 33779 33781 33782 33762 33760 33773 33780 33707 33702 33762 33713 33712 33711 33710 33716 33715 33714 33705 33701 33703 33704 33729 33731 33732 33733 33734 33742 33743 33747 33637 33629 33621 33620 33619 33616 33613 33610 33617 33614 33611 33612 33605 33603 33647 33609 33604 33607 33606 33602 33608 33622 33623 33630 33631 33633 33646 33650 33655 33663 33664 33672 33673 33674 33677 33679 33681 33684 33686 33689
45460,"Terre Haute, IN",Terre Haute,Indiana,IN,18,Vigo,18167,39.4654,-87.3763,"Clay County, Parke County, Sullivan County, Vermillion County, Vigo County","18021, 18121, 18153, 18165, 18167",45460,47804 47807 47802 47803 47809 47801 47808
45500,"Texarkana, TX-AR",Texarkana,Texas,TX,48,Bowie,48037,33.4487,-94.0815,"Little River County, Miller County, Bowie County","05081, 05091, 48037",45500,75501 75503 75599
45540,"The Villages, FL",The Villages,Florida,FL,12,Sumter,12119,28.9021,-81.9888,Sumter County,12119,45540,34785 32162 32159
45780,"Toledo, OH",Toledo,Ohio,OH,39,Lucas,39095,41.6639,-83.5822,"Fulton County, Lucas County, Ottawa County, Wood County","39051, 39095, 39123, 39173",45780,43615 43611 43613 43612 43614 43608 43610 43606 43607 43604 43605 43609 43620 43623 43601 43603 43635 43652 43656 43657 43659 43660 43661 43666 43667 43681 43682 43697 43699
45820,"Topeka, KS",Topeka,Kansas,KS,20,Shawnee,20177,39.0346,-95.6955,"Jackson County, Jefferson County, Osage County, Shawnee County, Wabaunsee County","20085, 20087, 20139, 20177, 20197",45820,66621 66622 66609 66608 66607 66606 66605 66604 66603 66611 66612 66614 66616 66601 66624 66625 66626 66629 66636 66647 66667 66675 66683 66699
45940,"Trenton-Princeton, NJ",Trenton,New Jersey,NJ,34,Mercer,34021,40.2236,-74.7641,Mercer County,34021,45940,08540 08542 08541 08544 08638 08611 08618 08629 08609 08608 08601 08603 08604 08605 08607 08625 08645 08646 08647 08666 08695
46060,"Tucson, AZ",Tucson,Arizona,AZ,4,Pima,04019,32.1545,-110.8782,Pima County,4019,46060,85705 85707 85706 85756 85723 85726 85724 85701 85708 85711 85748 85745 85747 85716 85714 85715 85712 85713 85710 85719 85730 85702 85703 85709 85717 85720 85721 85722 85725 85731 85732 85738 85751 85754 85775
46140,"Tulsa, OK",Tulsa,Oklahoma,OK,40,Tulsa,40143,36.1284,-95.9042,"Creek County, Okmulgee County, Osage County, Pawnee County, Rogers County, Tulsa County, Wagoner County","40037, 40111, 40113, 40117, 40131, 40143, 40145",46140,74133 74134 74135 74132 74130 74136 74137 74145 74127 74112 74114 74115 74117 74119 74015 74105 74129 74128 74120 74126 74110 74116 74107 74106 74104 74103 74146 74108 74101 74121 74141 74147 74148 74149 74150 74152 74153 74155 74156 74158 74159 74169 74170 74171 74172 74182 74186 74187 74192 74193
46220,"Tuscaloosa, AL",Tuscaloosa,Alabama,AL,1,Tuscaloosa,01125,33.2348,-87.5267,"Greene County, Hale County, Pickens County, Tuscaloosa County","01063, 01065, 01107, 01125",46220,35475 35476 35405 35404 35406 35401 35403 35407 35486 35487
46300,"Twin Falls, ID",Twin Falls,Idaho,ID,16,Twin Falls,16083,42.5645,-114.4615,"Jerome County, Twin Falls County","16053, 16083",46300,83301 83303
46340,"Tyler, TX",Tyler,Texas,TX,48,Smith,48423,32.3184,-95.3062,Smith County,48423,46340,75709 75702 75703 75701 75710 75712 75713 75798 75799
46520,"Urban Honolulu, HI",Honolulu,Hawaii,HI,15,Honolulu,15003,21.3294,-157.846,Honolulu County,15003,46520,96859 96850 96822 96826 96813 96815 96814 96817 96816 96819 96818 96801 96802 96803 96804 96805 96806 96807 96808 96809 96810 96811 96812 96820 96823 96828 96830 96836 96837 96838 96839 96840 96841 96843 96844 96846 96847 96848 96849 96858 96898
46540,"Utica-Rome, NY",Utica,New York,NY,36,Oneida,36065,43.0961,-75.226,"Herkimer County, Oneida County","36043, 36065",46540,13441 13440 13308 13442 13449 13501 13502 13503 13504 13505 13599
46660,"Valdosta, GA",Valdosta,Georgia,GA,13,Lowndes,13185,30.8502,-83.2788,"Brooks County, Echols County, Lanier County, Lowndes County","13027, 13101, 13173, 13185",46660,31698 31602 31601 31605 31603 31604
46700,"Vallejo, CA",Vallejo,California,CA,6,Solano,06095,38.1133,-122.2358,Solano County,6095,46700,94592 94590 94591 94589
47020,"Victoria, TX",Victoria,Texas,TX,48,Victoria,48469,28.8285,-96.985,"Goliad County, Victoria County","48175, 48469",47020,77901 77904 77905 77902 77903
47220,"Vineland-Bridgeton, NJ",Vineland,New Jersey,NJ,34,Cumberland,34011,39.4653,-74.9981,Cumberland County,34011,47220,08302 08344 08361 08360 08362
47260,"Virginia Beach-Norfolk-Newport News, VA-NC",Virginia Beach,Virginia,VA,51,Virginia Beach,51810,36.7335,-76.0435,"Camden County, Currituck County, Gates County, Gloucester County, Isle of Wight County, James City County, Mathews County, Southampton County, York County, Chesapeake city, Franklin city, Hampton city, Newport News city, Norfolk city, Poquoson city, Portsmouth city, Suffolk city, Virginia Beach city, Williamsburg city","37029, 37053, 37073, 51073, 51093, 51095, 51115, 51175, 51199, 51550, 51620, 51650, 51700, 51710, 51735, 51740, 51800, 51810, 51830",47260,23666 23651 23605 23669 23661 23663 23664 23665 23667 23668 23670 23681 23601 23603 23608 23604 23605 23606 23607 23602 23609 23612 23628 23630 23509 23508 23507 23504 23503 23502 23505 23518 23510 23513 23517 23551 23523 23511 23501 23506 23514 23515 23519 23529 23541 23709 23708 23704 23707 23701 23703 23702 23705 23459 23451 23453 23452 23455 23457 23456 23454 23460 23461 23462 23464 23450 23458 23463 23465 23466 23467 23471 23479
47300,"Visalia, CA",Visalia,California,CA,6,Tulare,06107,36.3276,-119.3269,Tulare County,6107,47300,93277 93291 93292 93278 93279 93290
47380,"Waco, TX",Waco,Texas,TX,48,McLennan,48309,31.5598,-97.1881,"Falls County, McLennan County","48145, 48309",47380,76798 76710 76711 76712 76708 76701 76707 76706 76704 76702 76703 76714 76797 76799
47460,"Walla Walla, WA",Walla Walla,Washington,WA,53,Walla Walla,53071,46.067,-118.3366,Walla Walla County,53071,47460,99362
47580,"Warner Robins, GA",Warner Robins,Georgia,GA,13,Houston,13153,32.597,-83.6529,"Houston County, Peach County","13153, 13225",47580,31088 31005 31093 31099
47900,"Washington-Arlington-Alexandria, DC-VA-MD-WV",Washington,District of Columbia,DC,11,District of Columbia,11001,38.9047,-77.0163,"Frederick County, Montgomery County, District of Columbia, Calvert County, Charles County, ""Prince Georges County"", Arlington County, Clarke County, Culpeper County, Fairfax County, Fauquier County, Loudoun County, Madison County, Prince William County, Rappahannock County, Spotsylvania County, Stafford County, Warren County, Alexandria city, Fairfax city, Falls Church city, Fredericksburg city, Manassas city, Manassas Park city, Jefferson County","24021, 24031, 11001, 24009, 24017, 24033, 51013, 51043, 51047, 51059, 51061, 51107, 51113, 51153, 51157, 51177, 51179, 51187, 51510, 51600, 51610, 51630, 51683, 51685, 54037",47900,20814 20815 20816 20817 20810 20811 20824 20889 20892 20894 21705 21703 21702 21701 21709 20878 20899 20879 20877 20883 20884 20885 20898 20852 20850 20851 20847 20848 20849 20857 22302 22301 22304 22305 22311 22314 22320 22331 22332 22333 22334 22209 22203 22202 22201 22207 22206 22205 22204 22214 22211 22213 20406 22210 22212 22215 22216 22217 22219 22225 22226 22227 22230 22240 22241 22242 22243 22244 22245 22246 20194 20191 20190 20192 20195 22096 20010 20011 20012 20015 20228 20520 20307 20418 20319 20024 20510 20593 20020 20427 20540 20240 20245 20204 20202 20390 20006 20005 20004 20003 20002 20009 20008 20535 20317 20405 20057 20052 20053 20017 20018 20565 20566 20560 20260 20064 20551 20553 20019 20230 20373 20007 20032 20036 20037 20506 20001 20045 20016 20013 20022 20026 20027 20029 20030 20033 20035 20038 20039 20040 20041 20042 20043 20044 20047 20049 20050 20055 20056 20058 20059 20060 20061 20062 20063 20065 20066 20067 20068 20069 20070 20071 20073 20074 20075 20076 20077 20078 20080 20081 20082 20090 20091 20201 20203 20207 20208 20210 20211 20212 20213 20214 20215 20216 20217 20218 20219 20220 20221 20222 20223 20224 20226 20227 20229 20232 20233 20235 20237 20238 20239 20241 20242 20244 20250 20251 20252 20254 20261 20262 20265 20266 20268 20270 20277 20289 20299 20301 20303 20306 20310 20314 20318 20330 20340 20350 20355 20370 20372 20374 20375 20376 20380 20388 20389 20391 20392 20393 20394 20395 20398 20401 20402 20403 20404 20407 20408 20410 20411 20412 20413 20414 20415 20416 20417 20419 20420 20421 20422 20423 20424 20425 20426 20428 20429 20431 20433 20434 20435 20436 20437 20439 20440 20441 20442 20444 20447 20451 20453 20456 20460 20463 20468 20469 20470 20472 20500 20501 20502 20503 20504 20505 20507 20508 20509 20511 20515 20521 20522 20523 20524 20525 20526 20527 20528 20529 20530 20531 20533 20534 20536 20537 20538 20539 20541 20542 20543 20544 20546 20547 20548 20549 20552 20554 20555 20557 20559 20570 20571 20572 20573 20575 20576 20577 20578 20579 20580 20581 20585 20586 20588 20590 20591 20594 20597 20598 20599 56901 56902 56904 56908 56915 56920 56933 56935 56944 56945 56950 56965 56966 56967 56968 56969 56970 56971 56972 56998 56999
47940,"Waterloo-Cedar Falls, IA",Waterloo,Iowa,IA,19,Black Hawk,19013,42.492,-92.3522,"Black Hawk County, Bremer County, Grundy County","19013, 19017, 19075",47940,50613 50614 50707 50703 50702 50701
48060,"Watertown-Fort Drum, NY",Watertown,New York,NY,36,Jefferson,36045,43.9734,-75.9094,Jefferson County,36045,48060,13603 13602 13601
48140,"Wausau-Weston, WI",Wausau,Wisconsin,WI,55,Marathon,55073,44.962,-89.6459,"Lincoln County, Marathon County","55069, 55073",48140,54401 54403 54476
48260,"Weirton-Steubenville, WV-OH",Weirton,West Virginia,WV,54,Hancock,54029,40.406,-80.5671,"Jefferson County, Brooke County, Hancock County","39081, 54009, 54029",48260,43952 43953 26062
48300,"Wenatchee, WA",Wenatchee,Washington,WA,53,Chelan,53007,47.4356,-120.3283,"Chelan County, Douglas County","53007, 53017",48300,98801
48540,"Wheeling, WV-OH",Wheeling,West Virginia,WV,54,Ohio,54069,40.0752,-80.6951,"Belmont County, Marshall County, Ohio County","39013, 54051, 54069",48540,26003
48620,"Wichita, KS",Wichita,Kansas,KS,20,Sedgwick,20173,37.6896,-97.3442,"Butler County, Harvey County, Sedgwick County, Sumner County","20015, 20079, 20173, 20191",48620,67230 67235 67260 67217 67216 67215 67214 67213 67212 67211 67210 67219 67218 67223 67220 67226 67202 67203 67204 67205 67206 67207 67208 67209 67201 67275 67276 67277 67278
48660,"Wichita Falls, TX",Wichita Falls,Texas,TX,48,Wichita,48485,33.9072,-98.5291,"Archer County, Clay County, Wichita County","48009, 48077, 48485",48660,76308 76310 76311 76309 76306 76305 76302 76301 76307
48700,"Williamsport, PA",Williamsport,Pennsylvania,PA,42,Lycoming,42081,41.2398,-77.0371,Lycoming County,42081,48700,17701 17703 17705 17720
48900,"Wilmington, NC",Wilmington,North Carolina,NC,37,New Hanover,37129,34.21,-77.8866,"New Hanover County, Pender County","37129, 37141",48900,28409 28401 28405 28403 28412 28402 28406 28408
49020,"Winchester, VA-WV",Winchester,Virginia,VA,51,Winchester,51840,39.1735,-78.1746,"Frederick County, Winchester city, Hampshire County","51069, 51840, 54027",49020,22601 22604
49180,"Winston-Salem, NC",Winston-Salem,North Carolina,NC,37,Forsyth,37067,36.1029,-80.2611,"Davidson County, Davie County, Forsyth County, Stokes County, Yadkin County","37057, 37059, 37067, 37169, 37197",49180,27110 27127 27040 27107 27106 27105 27104 27103 27101 27109 27102 27108 27111 27113 27114 27115 27116 27117 27120 27130 27150 27152 27155 27157 27198 27199
49340,"Worcester, MA-CT",Worcester,Massachusetts,MA,25,Worcester,25027,42.2705,-71.8079,"Windham County, Worcester County","09015, 25027",49340,01610 01608 01609 01602 01603 01604 01605 01606 01607 01601 01613 01614 01615 01653 01655
49420,"Yakima, WA",Yakima,Washington,WA,53,Yakima,53077,46.5923,-120.5496,Yakima County,53077,49420,98901 98903 98902 98908 98904 98907
49620,"York-Hanover, PA",York,Pennsylvania,PA,42,York,42133,39.9651,-76.7315,York County,42133,49620,17331 17332 17333 17404 17401 17403 17405
49660,"Youngstown-Warren-Boardman, OH-PA",Youngstown,Ohio,OH,39,Mahoning,39099,41.0993,-80.6463,"Mahoning County, Trumbull County, Mercer County","39099, 39155, 42085",49660,44512 44511 44514 44513 44483 44485 44484 44502 44503 44504 44505 44506 44507 44509 44511 44510 44501 44555
49700,"Yuba City, CA",Yuba City,California,CA,6,Sutter,06101,39.1357,-121.6381,"Sutter County, Yuba County","06101, 06115",49700,95991 95993
49740,"Yuma, AZ",Yuma,Arizona,AZ,4,Yuma,04027,32.5992,-114.5488,Yuma County,4027,49740,85365 85364 85369
